Dealer Code,Dealer Name,Dealer Type,Lat,Long,Distance,Company,Address,City,Email,Phone,Fax,SMS
DD313,Ring Road Honda ,Showroom & Workshop,28.6806,77.08994,NA,Sugoi Motors pvt ltd,"A-2 Udyog Nagar Indl. Area, Rohtak Road",DELHI,telemktg@rrhonda.com,"01145520000, 01145540000",011- 45540050, SMS Address
DD020,Prime Honda ,Showroom & Workshop,28.64599,77.33332,NA,Capital Cars Pvt. Ltd.," Ansal Plaza, Main Link Road (Opp. Dabur Factory), Vaishali, Ghaziabad, UP - 201012",GHAZIABAD,crmsalesvaishali@primehonda.comcustomercare@primehonda.commail@primehonda.com  ,"7290055379, 7375004989, 01204184200",NA, SMS Address
DD109,Courtesy Honda ,Showroom & Workshop,30.71387,76.80975,NA,Lally Automobiles Pvt. Ltd.,"Plot No. 6., Indl. Area Phase - I",CHANDIGARH,saleschd@lallyautomobiles.netsalesheadchd@lallyautomobiles.net,1723067777,0172-3067700, SMS Address
DD004,Prestige Honda ,Showroom & Workshop,31.2938,75.65388,NA,Lally Motors Ltd.,"Pragpur,G.T.Road",JALANDHAR,salesjal@lallymotors.netripu@lallymotors.net,1813067777,0181-3067700, SMS Address
DD024,Prestige Honda ,Showroom & Workshop,31.60418,74.93701,NA,Lally Motors Ltd.,"G.T ROAD, SULTANWIND",AMRITSAR,salesamr@lallymotors.netripu@lallymotors.net,1833067777,0183-3067770, SMS Address
DD003,Prestige Honda ,Showroom & Workshop,30.8668,75.92564,NA,Lally Motors Ltd.,"DHANDARI KALAN, G.T. ROAD,",LUDHIANA,salesldh@lallymotors.netripu@lallymotors.net,1613067777,0161-3067700, SMS Address
DD016,Pinkcity Honda ,Showroom,26.97256,75.775,NA,Pink City Motors Pvt. Ltd.," C-9, Road no-1, V.K.I. Area, Sikar Road, Jaipur

Rajasthan 302013",JAIPUR,sales@pinkcityhonda.comcustomer_relations@pinkcityhonda.com,"01414100200, 01414100100",0141-2701965, SMS Address
DD011,Sundaram Honda ,Showroom & Workshop,13.05941,80.25997,NA,Sundaram Motors,"180, ANNA ROAD",CHENNAI,shondachn@sundarammotors.comhondachn@sundarammotors.comcrm_shondachn@sundarammotors.com,"04428579404, 04428579405, 04428579406, 04428579407, 04428579408",28579410, SMS Address
DD150,Sundaram Honda ,Showroom & Workshop,11.02079,76.95312,NA,T.V Sundaram Iyengar & Sons,"No 368 369 Mettupalayam Road,Pincode- 641043",COIMBATORE,hondasales.smcbe@sundarammotors.com,4222449303,0422-2431121, SMS Address
DD021,Sundaram Honda ,Showroom & Workshop,17.74169,83.26463,NA,Sundaram Motors,"Manchukonda Gardens,Murali nagar,NH-5, Visakhapatnam- 530007",VISAKHAPATNAM(VIZAG),honsalmgr_viz@sundarammotors.com,"9849120325, 9100750744",0891-2558409, SMS Address
DD023,Sundaram Honda ,Showroom & Workshop,17.43015,78.48794,NA,Sundaram Motors,"67, M.G. Road, Ranigunj, Secunderabad - 500003",SECUNDERABAD,honsalmgr_sec@sundarammotors.com,"9887996677, 9121318881",040-27542258/5220, SMS Address
DD007,Peninsular Honda ,Showroom & Workshop,9.947801,76.31877,NA,Patel Cars (P) ltd.,"NH-47, VYTILLA-AROOR, BY-PASS ROAD, MARADU",KOCHI (COCHIN),rajeev@peninsularhonda.comgigipeter@peninsularhonda.com,"04842705547, 04842705548, 9895199000",0484-2705550, SMS Address
DD014B,Whitefield Honda ,Workshop,12.99282,77.70441,NA,White Field Motors Pvt. Ltd,"Plot No. 2A, Doddanakundi Industrial area, 2nd stage, Whitefield road, Mahadevapura post, Bengaluru - 560048",BANGALORE,managerbp@whitefieldhonda.com,"08033451812, 08033451813",080-25553369, SMS Address
DD005,Abhikaran Honda ,Showroom & Workshop,22.7699,75.9008,NA,Patwa City Automobiles Pvt. Ltd,"409-416 SANT NAGAR, (PART-I),SCHEME NO. 114,A.B. ROAD",INDORE,abhikaranhonda@rediffmail.com,"9893041888, 07314002200",0731-2572681/4002200, SMS Address
DD344,Landmark Honda ,Showroom,23.04824,72.51582,NA,Landmark Automobiles Pvt. Ltd.,"THALTEJ CROSS ROAD, SARKHEJ-GANDHI NAGAR HIGHWAY  ",AHMEDABAD,landmark@landmarkindia.netsales_ahd@landmarkindia.net,7966064545,079-66064546, SMS Address
DD013,Deccan Honda ,Showroom & Workshop,18.47086,73.85693,NA,Bafna Auto Cars (i) Pvt. Ltd.,"15,  PUNE SATARA ROAD, OPP. SHANKAR MAHARAJ  MATH, DHANKAWADI",PUNE,salesleads@deccanhonda.com,"02024371400, 02024371500, 02024371600",020-24373000, SMS Address
DD014,Whitefield Honda ,Showroom & Workshop,12.99996,77.68269,NA,White Field Motors Pvt. Ltd.,"Whitefield Motors Pvt. Ltd. | 116-1 , B Narayanpura, Doorvaninagar,Near K R Puram rly station,White Field Road, Bangalore, Pincode - 560016",BANGALORE,sales@whitefieldhonda.comcorp.sales@whitefieldhonda.comservice@whitefieldhonda.com,"9845008060, 08030760000, 08030760100",080-28510569, SMS Address
DD029,Sundaram Honda ,Showroom & Workshop,16.4994,80.64747,NA,Sundaram Motors,"11,M.G.ROAD,LABBIPET,VIJAYAWADA-520010",VIJAYWADA,honsalmgr_vij@sundarammotors.com ,"7675800509, 8657589136",0866-2486618, SMS Address
DD028A,Coastal Honda ,Showroom,15.48627,73.8183,NA,Caculo Cars Pvt. Ltd.,"CACULO ENCLAVE, OPP. FIRE SERVICE STATION HEAD QUARTER, ST. INEZ, PANAJI",GOA,sudeshdhargalkar@coastalhonda.net,"08326649933, 7767815751",NA, SMS Address
DD030,Peninsular Honda ,Showroom & Workshop,8.565,76.88173,NA,Patel Cars (p) Ltd.,"KOLLAM , NH-47 HIGHWAY, KAZHAKUTTAM, OPP. KARIYAVATTOM UNIVERSITY,",THIRUVANANTHAPURAM(TRIVANDRUM),gigipeter@peninsularhonda.comnayaz@peninsularhonda.com,"04712416777, 04712418777, 9895299000",0471-2416777, SMS Address
DD110,Courtesy Honda ,Showroom & Workshop,29.62899,76.97694,NA,Lally Automobiles Pvt. Ltd.,"117/8 K.M. Milestone, G.T. Road, Madhuban",KARNAL,saleskrl@lallyautomobiles.net,1843067777,0184-3067700, SMS Address
DD149,Sundaram Honda ,Showroom & Workshop,9.911542,78.11433,NA,T.V Sundaram Iyengar & Sons,"211, South Veli Street, Madurai ",MADURAI,hondasales.smmdu@sundarammotors.com,9952333835,0452-2341587, SMS Address
DD035,Heritage Honda ,Showroom & Workshop,27.2214,77.9264,NA,M.G.R. Automobiles,"OPP. SIKANDRA INDL. AREA, MATHURA ROAD, N.H.-2",AGRA,sales@heritagehonda.inamitagarwal@heritagehonda.in,"8937095610, 8937095645 ",0562-2641563, SMS Address
DD346,Landmark Honda ,Showroom & Workshop,22.24239,70.79922,NA,Landmark Automobiles Pvt. Ltd.,"Gondal Road, Gondal - Ahmedabad Bypass Circle, NH - 8/B, Vavdi, Rajkot - 360004",RAJKOT,rajkot@landmarkindia.net,"02816692000, 02816692020",0281-2382249, SMS Address
DD039,Prestige Honda ,Showroom & Workshop,30.37211,76.47595,NA,Lally Motors Ltd.,"Rajpura Patiala Road, Bhadurgarh",PATIALA,salesptl@lallymotors.netripu@lallymotors.net,1753067777,0175-3067700, SMS Address
DD313A,Ring Road Honda ,Showroom,28.62653,77.2204,NA,Sugoi Motors pvt ltd,A-2 Udyog Nagar Indl. AreaRohtak Road,DELHI,sqm_cp@rrhonda.com,1143080000,011- 43080002, SMS Address
DD041,Highway Honda ,Showroom & Workshop,20.296,85.825,NA,Aditya Car Automotive Pvt. Ltd.,"PLOT NO: 377, NH-5, RUDRAPUR, PAHAL, BHUBANESWAR-752101 (Showroom). PLOT NO: 377, NH-5, RUDRAPUR, PAHAL, BHUBANESWAR-752101 (Workshop)",BHUBANESWAR,sales@highwayhonda.comservice@highwayhonda.com,"06747112222, 7873999819, 7873999617",0674-2546252/0674-2463525, SMS Address
DD036,Abhikaran Honda ,Showroom & Workshop,23.2606,77.4566,NA,Patwa City Automobiles Pvt. Ltd.,"PLOT NO 7&8,SECTOR-E,J.K. ROAD,GOVINDPURA INDUSTRIAL AREA.",BHOPAL,abhikaran.bhopal@gmail.com ,"9893060888, 07554265644, 07556455950","0755-5265644,45", SMS Address
DD037A,Deccan Honda ,Workshop,19.82027,75.24458,NA,BAFNA AUTO CARS (I) PVT. \LTD.,"GUT NO.143, VALLANDGAON NEAR WALUJ, AURANGABAD.431136",AURANGABAD,sqmsalesabad@deccanhonda.comcrmaurangabad@deccanhonda.com,"2402321144, 2402321155, 2402321166",0240-3091541, SMS Address
DD044,Pushp Honda ,Showroom & Workshop,26.48256,80.32806,NA,Smart Cars Ltd.,"4B-3 ,SMART CAR LANE , DADA NAGAR CO-OPERATIVEINDUSTRIAL ESTATEALSO AT 9/2 ALLENGANJ .ALSO AT 9/2 ALLENGANJ , KANPUR",KANPUR,sales@pushphonda.comakash@pushphonda.com,"917897554545, 919198605454",0512- 2234253. 2234206, SMS Address
DD315,Ring Road Honda ,Showroom & Workshop,28.49171,77.06871,NA,Sugoi Motors pvt ltd,A-2 Udyog Nagar Indl. AreaRohtak Road,GURGAON,tmkg_ggn@rrhonda.com,1244609400,"0124-4688010, 0124-4695040", SMS Address
DD043,Dakshin Honda ,Showroom & Workshop,12.88293,77.64425,NA,Elite Automobiles Pvt. Ltd.,"97/1A, Singasandra Village, Hosur Road, Bangalore",BANGALORE,sales@dakshinhonda.comcrm.sales@dakshinhonda.com,"9513733407, 08040805600","080 - 25736065, 41112733", SMS Address
DD045,Shubh Honda ,Showroom & Workshop,21.23708,81.58652,NA,Karan City Automobiles Pvt. Ltd.,"RING ROAD NO. 1,",RAIPUR,shubhhonda@rediffmail.com,7714072072,0771 - 2263525, SMS Address
DD050,Ring Road Honda ,Showroom & Workshop,28.66152,77.14674,NA,Sugoi Motors Pvt. Ltd.,21-A Najafgarh Road,DELHI,tmkg_mn@rrhonda.com,"01145049335, 01145049336",011-42597070, SMS Address
DD047,Riverside Honda ,Showroom & Workshop,16.70793,74.26994,NA,Rasika Motors Pvt. Ltd.,"RS No. 52/14, 15, 16, 13Bhumapan, No. ES 2Mouje UchagaonTaluka Karveer (Opp. Shiroli Octroi Check Post)",KOLHAPUR,rasikamotors@yahoo.comsushant_rasikamotors@yahoo.com,2316634000,0231-2669898, SMS Address
DD049,Divine Honda ,Showroom & Workshop,30.26591,77.98335,NA,Divine Automotives Pvt. Ltd.,MOHABEDWALA INDUSTRIAL AREASAHARANPUR ROAD,DEHRADUN,sales@divinehonda.com,"01352645001, 01352645006",0135-2645005, SMS Address
DD046,Hallmark Honda ,Showroom & Workshop,19.04959,73.0234,NA,M/s Hallmark Automotive Pvt. Ltd.,"D 43/2, TTC INDUSTRIAL AREA, MIDC, SHIRAVANE (NEAR NERUL BRIDGE),MUMBAI - PUNE ROAD",NAVI MUMBAI,sales@hallmarkhonda.comservice@hallmarkhonda.com,2227675000,022-27675001, SMS Address
DD052,Courtesy Honda ,Showroom & Workshop,28.51939,77.27864,NA,Lally Automobiles Pvt Ltd.,"D-11, Industrial Area Phase - I, Okhla",DELHI,crmsalesokhla@lallyautomobiles.net crmserokhla@lallyautomobiles.net," 011-40710000, 9711042928",N/A, SMS Address
DD055,Capital Honda ,Showroom & Workshop,12.98662,80.17574,NA,Aadit Auto Company Pvt.Ltd.,"18, G.S.T ROAD, OPP. AIRPORT CARGO COMPLEX ,MEENAMBAKKAM,",CHENNAI,sales@capitalhonda.in,"9940126651, 9940460001, 04443216000",044-43216000, SMS Address
DD060,Harmony Honda ,Showroom & Workshop,30.6974,76.78422,NA,M/s Joshi Automotives Pvt Ltd,"PLOT NO. 67, INDUSTRIAL AREA, PHASE II, Pin Code : 160 002",CHANDIGARH,sales@harmonyhonda.inceo@harmonyhonda.injoshihonda@gmail.cominfo@harmonyhonda.in,1725022222,0172-5022225, SMS Address
DD051,Ace Honda ,Showroom & Workshop,28.5996,77.32851,NA,Naksha Enterprises Pvt. Ltd.,"G-25, SECTOR - 11, NOIDA - 201301, INDIA",NOIDA,service@acehonda.insales@acehonda.in     ,1204000400,"(0120) 4230303,4230404", SMS Address
DD068,Classic Honda ,Showroom & Workshop,28.45489,77.30898,NA,Sterling Automobiles Private Limited,"14/1, MATHURA ROAD, FARIDABAD, HARYANA - 121003",FARIDABAD,sales@classichonda.co.in,1294097007,0129-4113855, SMS Address
DD058,Autokam Honda ,Showroom & Workshop,24.57539,73.74767,NA,Kamal Automotives Pvt. ltd.,"E-93, MADRI, MEWAR INDUSTRIAL AREA, N.H.8",UDAIPUR,Sales@autokamhonda.com,"02942491641, 02946453145",0294-2491642, SMS Address
DD213,Hallmark Honda ,Showroom & Workshop,18.99863,73.11033,NA,M/s Hallmark Automotive Pvt. Ltd.,"Plot NO.100,Panvel Industrial Co-op,Estate Limited,Opp. Panvel Flyover, Old Mumbai Pune Highway,Taluka-Panvel , Dist:-Raigad Pin 410206",MUMBAI,sales@hallmarkhonda.comservice@hallmarkhonda.com,"02271205000, 7506791125, 7506791120",NA, SMS Address
DD070,Pride Honda ,Showroom & Workshop,17.44585,78.3851,NA,Pride Honda,"PLOT NO:9,SURVEY NO:64, HUDA TECHNO ENCLAVE,MADHAPUR-500081",HYDERABAD,sm.madhapur@pridehonda.in,"8499974558, 8099938844",040 - 23552540, SMS Address
DD070b,Pride Honda ,Workshop,17.50862,78.36243,NA,M/s. Pride Honda,"1-70 Sy No. 201/B, Opposite Dr. Reddy's research foundation, Medinaguda, Miyapur bollaram road, Hydrabad, 500049",HYDERABAD,servicepridehonda@gmail.com,"9505018881, 04064566324",NA, SMS Address
DD048,Arya Honda ,Showroom,19.01417,72.83083,NA,Shaman Cars India Pvt. Ltd.,"Madhu Kunj,Sayani Road, Prabhadevi",MUMBAI,managerhondasales@teamshaman.commanager.hondafort@teamshaman.com ,"24228686, 24228787",022 - 24321919, SMS Address
DD322,Aryodaya Honda ,Showroom & Workshop,21.15232,79.02131,NA,ARYODAYA NEXMOVE PVT LTD,"PLOT NO-34/1, 35/1, CITY SURVEY NO-25, KACHIMET,",NAGPUR,gmsales@aryodayahonda.comgmservice@aryodayahonda.com,"919766522223, 919890510613",NA, SMS Address
DD054,Pinnacle Honda ,Showroom & Workshop,22.61994,88.46269,NA,Chandrani Enterprises Pvt. Ltd.,"CHANDRANI TOWERS, 739 ANANDAPUR, E.M. BYEPASS, NEAR RUBY HOSPITAL, Besid Calcutta International School",KOLKATA,sales@pinnaclehonda.com,3340404444,033-22874190, SMS Address
DD013A,Deccan Honda ,Showroom,18.53566,73.88064,NA,Bafna Auto Cars (i) Pvt Ltd.,"Survey No. 28, Shop No.42/43,Connaught Place Building, Bund Garden Road, ",PUNE,salesleads@deccanhonda.com,"02041043126, 02041043100, 02041043103",020-26050100, SMS Address
DD028,Coastal Honda ,Showroom & Workshop,15.36561,73.92524,NA,Caculo Cars Pvt. Ltd.,"NH - 17, VERNA PLATEAU, SALCETE",GOA,ameyacharya@coastalhonda.net,"7066040130, 08326693333",0832 - 6693344, SMS Address
DD073,Landmark Honda ,Showroom & Workshop,21.1614,72.77454,NA,Landmark Honda,"Signature,68/3, FP : 36,Near Iskon Mall,Dumas Road,Surat",SURAT,lalit@landmarkindia.netsales_surat@landmarkindia.netsm_surat@landmarkindia.net,2616713700,0261 6674546, SMS Address
DD072,Hillview Honda ,Showroom & Workshop,32.76176,74.91515,NA,Trehan Automotives Pvt. Ltd.,"NH 1, BYE PASS ROAD, SIDHRA",JAMMU,sales@hillviewhonda.comservice@hillviewhonda.comsanjay_shan_13@yahoo.co.in,"01912662731, 01912662736, 01912662739, 01912662742 ",0191 - 2662745/0191 - 2662742, SMS Address
DD081,Lakeview Honda ,Showroom & Workshop,15.38262,75.11189,NA,Lakeview Honda,"PLOT NO. 11, 12, 13, & 14, OPPOSITE UNKAL LAKE, UNKAL VILLAGE ",HUBLI,suhasjavali@hotmail.comsales@lakeviewhonda.comservice@lakeviewhonda.com,"9731596555, 08362278837, 08366577647, 9731596205",0836-2374905, SMS Address
DD084,Magnum Honda ,Showroom & Workshop,12.87853,77.54483,NA,M/s Akshara Motors Pvt.Ltd.,"M/s Akshara Motors Pvt Ltd, no 27/2,Kanakapura Main Road, Raghuvanahalli Uttarahalli Hobli, Next To KSIT College, Bangalore 560062",BANGALORE,sales@magnumhonda.com,"9972303622 , 08026322271, 08026322274",NA, SMS Address
DD061,Samara Honda ,Showroom,28.62186,77.11766,NA,Samara AutoMax Pvt Ltd (Showroom),"C-110, Mayapuri- 2, New Delhi",DELHI,sm.myp@samarahonda.com,"9717556161, 01145656565",011-45656566, SMS Address
DD063,Deccan Honda ,Showroom & Workshop,18.62764,73.80221,NA,Bafna Auto Cars (i) Pvt Ltd.,"(workshop) Next to Finolex Cables, Opposite PCMC Building  off, Old Mumbai,",PUNE,salesleads@deccanhonda.com,"02027441000, 02040772355",27443899/020-40772354, SMS Address
DD082,Platinum Honda ,Showroom,28.92229,77.65202,NA,SJS Auto Services (p) Ltd,"Delhi Road,",MEERUT,udaiveer1@gmail.comrajveer431@hotmail.com,"9756799902, 9897777736",Not Available, SMS Address
DD091,Inspire Honda ,Showroom & Workshop,12.34758,76.58002,NA,SHAH AUTOMOTIVES MYSORE PVT. LTD.,"# 101(P), Hootagalli Industrial Area",MYSORE,sales@inspirehonda.com service@inspirehonda.com,"08214009400, 08214009425, 08214009450",0821-4009499, SMS Address
DD066,Emerald Honda ,Showroom,23.02328,72.54941,NA,M/s Emerald Cars Pvt.Ltd. (Showroom),"YSL Avenue, Polytechnic Road,Opp.Ketav Petrol Pump",AHMEDABAD,sales@emeraldhonda.com,"40228000, 26309171, 26309181",26309161, SMS Address
DD071,Spectrum Honda ,Showroom,26.11146,91.73087,NA,M/s. Ghosh Brothers Motors Pvt. Ltd.,"National Highway 37,",GUWAHATI,ghoshbros@spectrumhonda.in,"03612236525, 03612236565",0361-2236538, SMS Address
DD347, landmark Honda  ,Showroom & Workshop,23.58101,72.37008,NA,M/s Landmark Automobiles Pvt.Ltd.,"Survey No. - 335-P, Mouje Nagalpur, National Highway, Mehsana - 384002",MEHSANA,sales_mehsana@landmarkindia.netmehsana@landmarkindia.net,"02762664545, 9825232213",02672 - 664546, SMS Address
DD084A,Magnum Honda ,Showroom,13.0133,77.58363,NA,Akshara Motors Private Limited,"No.6, Flat No. 18, SY. No. 2, Achaiah Shetty Layout",BANGALORE,salesmanager_rmv@magnumhonda.com,"08043534444, 9900029164",080-22976154, SMS Address
DD095,Solitaire Honda ,Showroom & Workshop,19.22023,72.8602,NA,M/s Krish Cars Pvt.Ltd.,"C/o Shakti Insulated Wires, Shakti Industrial & Commercial Business Centre, Dattapada road, Rajendra Nagar, ",MUMBAI,milind.shah@solitairehonda.com,"02267385555, 02267385566, 02267385588, 02267385599",022- 67385588/5599/5500, SMS Address
DD026,Prime Honda ,Showroom & Workshop,28.61835,77.28737,NA,Capital Cars Pvt. Ltd.,"Plot No. 1, Patparganj Industrial Complex, (Opp. Mother Dairy) Delhi - 110092",DELHI, crmsalesppg@primehonda.comcrmserviceppg@primehonda.commail@primehonda.com   ," 7290055380, 7375004990, 01140888888",NA, SMS Address
DD087,Sunshine Honda ,Showroom & Workshop,26.77792,75.84102,NA,Agrasen Cars (P) Ltd.,"G-153-154,  Behind Infosys, Sitapura Industrial Area, Nearest Landmark - Infosys (Workshop & Service Facility)",JAIPUR,sales@sunshinehonda.netgmservice@sunshinehonda.net,"01412770450, 01412770451",NA, SMS Address
DD087A,Sunshine Honda ,Showroom,26.90129,75.78253,NA,Agrasen Cars (P) Ltd.,"A-7, Hawa Sadak,Near Civil Lines",JAIPUR,sales@sunshinehonda.netgmservice@sunshinehonda.net,"01412213251, 01412213252, 01412213253, 9214443359, 9351063955",NA, SMS Address
DD016A,Pinkcity Honda ,Showroom & Workshop,26.87308,75.79713,NA,PinkCity Motors (P) Ltd,"C-9, Road no. 1 (Workshop & Service)",JAIPUR,service@pinkcityhonda.com,"01415114933, 01414100200",0141-5115300, SMS Address
DD153,Sundaram Honda ,Showroom & Workshop,11.66617,78.14397,NA,M/s T.V.Sundaram Iyenagar & Sons Ltd.,"4, Omalur Main Road, Salem ",SALEM,hondasales.smslm@sundarammotors.com,"04272352169, 04272351785",0427-2352673 , SMS Address
DD099,Olympia Honda ,Showroom & Workshop,13.09476,80.16607,NA,Khivraj Vahan Pvt. Ltd.,"Plot No. 21, Industrial Estate,Ambattur",CHENNAI,mis@olympiahonda.co.in,9841422650,044-42299611, SMS Address
DD155,Arya Honda ,Showroom & Workshop,19.1377,72.92992,NA,Shaman Cars India Private Limited,"99/100,  L.B.S Marg,  Near St. Xaviers High School (showroom & workshop)",MUMBAI,hondasales.bhandup@teamshaman.comhondaservice.bhandup@teamshaman.com,2267747777,6774 7766, SMS Address
DD100,Vision Honda ,Showroom & Workshop,9.561991,76.51617,NA,Vision Motors Pvt Ltd,"Building No. XI / 243, Survey No. 434/3, 434/4, Peekay Complex, Vill. Nattakom,After Hotel Windsor Castle, MC Road,Kottayam",KOTTAYAM,salesmgr@visionhonda.combusinesshead@visionhonda.com,"04812361149, 04812361150, 04812361151, 04812361152",0481 - 2361149, SMS Address
DD095B#,Solitaire Honda ,Workshop,19.13301,72.83523,NA,M/s Krish Cars Pvt.Ltd.,"23A, Shah Indst. Estate. Off Veera Desai Rd. Andheri (W),Mumbai 400053",MUMBAI,crm.andheri@solitairehonda.comservicemanager.andheri@solitairehonda.com,"02261516151, 02261777777",26743500, SMS Address
DD105,Shubh Honda ,Showroom & Workshop,21.99628,82.07394,NA,Karan City Automobiles Pvt. Ltd.,"NH 200,  Hirri Mines,  (Chhattisgarh)",BILASPUR,salesbilaspur@shubhhonda.comservicebilaspur@shubhhonda.com,7752217943,07752 - 217944, SMS Address
DD106,Trident Honda ,Showroom & Workshop,25.42554,81.97752,NA,Surekha Sales Pvt. Ltd.,"Sarai Inayat,  Allahabad-Varanasi G.T Road - NH2",ALLAHABAD,sales@tridenthonda.inservice@tridenthonda.in,"9628370021, 9628370025, 9628370001, 9628373443",91 - 05332- 220701 / 02, SMS Address
DD101,Destination Honda ,Extended Showroom & Workshop,22.67424,72.88264,NA,Downtown Auto Pvt. Ltd.,"Destination Honda , Downtown Auto Pvt Ltd , 
Opp Kokran Mandir, Near Canal , College Road , NADIAD .Dist : Kheda , Pincode : 387001",KHEDA,destinationhonda@gmail.com destinationhonda@yahoo.in,"9428648584, 8469156565, 9099556565, 8980446565",02692- 222424, SMS Address
DD062,Dream Honda ,Showroom & Workshop,21.17481,72.83717,NA,Jivan Jyot Motors Pvt. Ltd,"Dream Honda,Jivanjyot Theatre Compound,Main Udhna Road,Surat",SURAT,jivanjyothonda@gmail.com,"09662526250, 02614060406, 02614060401",0261 - 4060402, SMS Address
DD113,Hallmark Honda ,Showroom & Workshop,19.19438,72.94621,NA,M/s Hallmark Automotive Pvt. Ltd.,"R D Ashar Compound,Main Road (Survey No. 412),Wagle Industrial Estate,Road No. 27",THANE,salesmgr_thane@hallmarkhonda.com,"02225819300, 9004385090, 9004385096, 9004255000, 9004145000",022- 25819301 / 25820100, SMS Address
DD096,Heritage Honda ,Showroom & Workshop,27.4504,77.6845,NA,M.G.R.Automobiles Pvt. Ltd.,"Navada,  Mathura - Delhi Road, NH-2",MATHURA,sales.mathura@heritagehonda.in service.mathura@heritagehonda.in,"8937095715, 8937095730",5652520303, SMS Address
DD104,Divine Honda ,Showroom & Workshop,29.89102,77.95461,NA,Divine Automotives Pvt. Ltd.,"7 KM milestone,Roorkee Haridwar Highway,Village Belda, Roorkee(District Haridwar, Uttarakhand)",ROORKEE,sales@divinehonda.in,"911332278100, 911332278104",01332-278105, SMS Address
DD098,Crystal Honda ,Showroom & Workshop,18.51949,73.77203,NA,Kothari Autolink Pvt Ltd,"S. Number 268,  Mantri Alpine,Katraj Dehu Road Bypass,Near Chandni Chowk",PUNE,sales@crystalhonda.com,"02067908222, 02067908200, 02067908000",020-67908211, SMS Address
DD169,Stallion Honda ,Showroom & Workshop,26.87231,80.97831,NA,Stallion AutoSales Pvt.Ltd,"Village Anaura, After Indira Canal, Faizabad Road,",LUCKNOW,sales@stallionhonda.com service@stallionhonda.com,"05223291237, 05223290143, 05223291244, 8009777000, 8009090093, 8009090094, 8009090095",0522-4101436, SMS Address
DD092A,Stallion Honda ,,26.87039,80.97131,NA,M G Autosales Pvt Ltd,"A-16, Indira Nagar, Faizabad Road",LUCKNOW,sales@stallionhonda.com service@stallionhonda.com,"0522-4022777, 8009222000/8009090091/8009090100",0522-4101436, SMS Address
DD097,Sumedha Honda ,Showroom & Workshop,26.1422,78.1303,NA,MGRG Automobiles Pvt Ltd,"ear Chirwai Naka, Shivpuri Link Road Gwalior 474009 (M.P.)",GWALIOR,sales@sumedhahonda.com,"07512439300, 07512439301, 07512439302",0751- 2439303, SMS Address
DD108,Autokam Honda ,Showroom & Workshop,25.13543,75.86481,NA,Kamal Automotives Pvt. Ltd.,"G - 15/16 I.PI.A, AUTOMOBILE ZONE,NEAR DHAKNIA STATION,",KOTA,saleskota@autokamhonda.com servicekota@autokamhonda.com,"8955513757, 8955144171, 9001056030",91-744-2436006, SMS Address
DD084B,Magnum Honda ,Workshop,13.03319,77.5412,NA,M/s Akshara Motors Pvt.Ltd.,"No. 2/3, (Survey No 8), MES Road, Yeshwanthapur, Near Taj Vivanta, Bengaluru, Karnataka 560022",BANGALORE,servicemanager_yp@magnumhonda.com,8049080669,080-23515890, SMS Address
DD083,Splendid Honda ,Showroom & Workshop,23.2213,79.8972,NA,Splendid Motors Private Limited,"Katangi Bypass Crossing, ",JABALPUR,info@splendidhonda.com,"07614056121, 07614056122, 9039022011, 9039022036",2636100, SMS Address
DD123,Harmony Honda ,Showroom & Workshop,30.66942,76.83724,NA,Joshi Autolinks Pvt Ltd.,"Plot No. 389,Industrial Area Phase 1",PANCHKULA,sales.pkl@harmonyhonda.in ceo@harmonyhonda.in info.pkl@harmonyhonda.in,1725066666,0172-5048811, SMS Address
DD119,Green Honda ,Showroom & Workshop,17.36647,78.5566,NA,Kapil Motors Pvt. Ltd.,"No 2/4/135, Snehapuri ColonyNo 2/4/135, Snehapuri Colony, Nagole,Hyderabad - 500035",HYDERABAD,saleshead@greenhonda.in,7799019401,040-24033370, SMS Address
DD315A,Ring Road Honda ,Showroom,28.47917,77.07375,NA,Sugoi Motors pvt ltd,A-2 Udyog Nagar Indl. AreaRohtak Road,GURGAON,sqmggn@rrhonda.com,1244688000,0124-4688010, SMS Address
DD055B,Capital Honda ,Workshop,12.95802,80.24888,NA,Aadit Auto company Pvt Ltd ,"# DP 49, Perungudi Industrial Estate",CHENNAI,service@capitalhonda.incapitalhondaservice@gmail.com,"04443486000, 9940630225",044 - 4348 6030, SMS Address
DD124,Elegant Honda ,Showroom & Workshop,30.32084,76.91662,NA,Kishiv Motors pvt. Ltd.,"9 K.M Stone, Village Khuddi,Ambala Jagadhri Road, Ambala Cantt, Haryana ",AMBALA,hondasalesamb@kmpl.net.in hondaseramb@kmpl.net.in,"9992221962, 9992221957, 01712891081, 01712891082",0171 - 2891079, SMS Address
DD120,Express Honda ,Showroom,14.38312,79.93644,NA,LM Automotive (India) Pvt. Ltd.,"Rajesh Pamulapati, Sy. No. 83,  Kakutur Village, Venkatchalam Mandal,  Nellore,  Andhra Pradesh",NELLORE,sales@expresshonda.com service@expresshonda.com,"08612383968, 08612383969, 7702366699",0861-2383199, SMS Address
DD126,Signature Honda ,Showroom,11.8742,75.38749,NA,Signature Automobiles India Pvt. Ltd.,"CENTRIUM,KANNOTHUMCHAL,P.O.CHOVVA",KANNUR,signaturehonda@thebusinesshouse.org shamsheer@thebusinesshouse.org,4972717171,0497 - 2717170, SMS Address
DD127,Capital Honda ,Showroom & Workshop,10.80603,78.71134,NA,Aadit Auto Company Pvt. Ltd.,"D.No. 2/1 & 2/2, Chennai Bye Pass Road,Varaganeri",TRICHY,sales.trichy@capitalhonda.in,"04312200490, 04312200491, 04312200492, 09840076920",NA, SMS Address
DD121,Eastern Honda ,Showroom & Workshop,22.51479,88.28859,NA,B.D. AUTOMOBILES PVT. LTD.,"GOPALPUR, BUDGE BUDGE TRUNK ROAD, P.O.-SARKARPOOL, P.S.-MAHESHTALA(3S-Showroom & Workshop)",KOLKATA,sales@easternhonda.in service@easternhonda.in,"9903969055, 033660966091",NA, SMS Address
DD131,Planet Honda ,Showroom & Workshop,29.16131,79.52257,NA,KARAN ASHOK AUTO PVT. LTD.,"GORAPARAO, BAREILLY ROAD",HALDWANI,info@myplanethonda.com sales@planethonda.co.in service@planethonda.co.in spares@planethonda.co.in,"05946232222, 7500575005",05946 - 232017, SMS Address
DD125,Merit Honda ,Workshop,28.9003,76.55013,NA,SPL Motors Pvt. Ltd.,"workshop - Hisar Road Workshop - Plot No. 161, IE Kutana (IDC), ",ROHTAK,sales@merithonda.com service@merithonda.com admin@merithonda.com,8607777200,NA, SMS Address
DD132,Paradise Honda ,Showroom & Workshop,26.81697,83.40022,NA,MB MOTORS PVT.LTD.,"PLOT No. - 623, GULHARIYA.MEDICAL COLLEGE RAOD,",GORAKHPUR,sales@paradisehonda.com  service@paradisehonda.com,"8127422222, 8127522222",NA, SMS Address
DD055A,Capital Honda ,Showroom,12.97629,80.25144,NA,Aadit Auto company Pvt Ltd.,"4/579, Rajiv Gandhi salai, Kottivakkam, chennai 600 041 (Workshop)",CHENNAI,sales.omr@capitalhonda.in,"04433906000, 09940639236",NA, SMS Address
DD133,Vision Honda ,Showroom,10.52444,76.25667,NA,Vision Motors Pvt Ltd,"VISION MOTORS PVT LTD, NH BYPASS, MANNUTHY, OLLUKKARA P O, THRISSUR - 680655",THRISSUR,salesmgrtsr@visionhonda.com rsmnorth@visionhonda.com,"9656925555, 8606934262, 04872372008, 9656925555",0487- 2372009, SMS Address
DD134,Dream Honda ,Showroom & Workshop,20.41433,72.91704,NA,Dream Honda,"Ganga Complex, Opp- Empress Mall, At Post-Salvav,NH-8",VAPI,salesmngrvapi.dreamhonda@gmail.com,2602437211,0260- 2437228, SMS Address
DD129,Emerald Honda ,Showroom & Workshop,23.24651,72.6705,NA,Emerald Honda,"Plot No. 17/A,Sector 30,GTS Road",GANDHINAGAR,Sales_gandhinagar@emeraldhonda.com sales1_gandhinagar@emeraldhonda.comcorporatesales@emeraldhonda.com,"07923249001, 07923249004, 07923249007",079-23249001/9004/9007, SMS Address
DD130,Elite Honda ,Showroom & Workshop,17.0223,81.80597,NA,Elite Honda,"#71-8-4, Besides Spinning Mill, Near Lalacheruvu,NH-16 Road, Rajamahendravaram-533105",RAJAHMUNDRY,sales@elitehonda.co.in,"7799900555, 7799900576",0883- 2488444, SMS Address
DD138,Muthoot Honda ,Showroom & Workshop,8.898075,76.61047,NA,Muthoot Automotive India Pvt. Ltd.,"NEAR TOWN LIMIT, NH-208, KOLLAM-SENKOTTA ROAD,KADAPAKKADA, KOLLAM-8		",KOLLAM,rajesh.nair@muthoothonda.com,4743013333,0474- 3013333, SMS Address
DD145,Spectrum Honda ,Showroom & Workshop,27.46951,94.90579,NA,Ghosh Brothers Auto Sales Pvt. Ltd.,"T.R Phokan Road, Chiring chapori",DIBRUGARH,salesdibrugarh@spectrumhonda.in servicedibrugarh@spectrumhonda.in,"03732325423, 03732322223",NA, SMS Address
DD141,Pinkcity Honda ,Showroom & Workshop,27.61251,76.64208,NA,Pinkcity Motors Pvt. Ltd,"2 Km from telco chowk, Before Gajuka,NadiPulia		",ALWAR,Salesalwar@pinkcityhonda.com servicealwar@pinkcityhonda.com,"9166706701, 01443010200, 01443010210",NA, SMS Address
DD139,Vaishali Honda ,Showroom,25.61775,85.11236,NA,HAV Automobiles Pvt. Ltd.,"Opposite A.N College, ",PATNA,sales@vaishalihonda.com,"06123213211, 9798005500",NA, SMS Address
DD043A,Dakshin Honda ,Showroom,12.97418,77.59936,NA,Elite Automobile Pvt. Ltd.,"No. 40, Prestige Tudor Court, Lavelle Road, Bangalore",BANGALORE,crm.sales1@dakshinhonda.com,"9731278383, 08049399888",NA, SMS Address
DD187A,Crystal Honda ,Showroom,18.56252,73.91821,NA,Kothari Auto Link Pvt. Ltd.,"workshop No. 4 & 5,Giga Space- Vimannagar,Pune ",PUNE,sales@crystalhonda.com,020 67254000,NA, SMS Address
DD148,Emerald Honda ,Showroom,23.56239,72.95373,NA,Emerald Cars Pvt Ltd.,"AT- PIPLODI, POST- HAJIPUR, N.H.8, HIMMATNAGAR-383001",HIMMATNAGAR,sales.himmatnagar@emeraldhonda.com service.himmatnagar@emeraldhonda.com,"9714508884, 9714006574",NA, SMS Address
DD122,Samara Honda ,Showroom,28.5684,77.189,NA,Samara AutoMax Pvt Ltd ,"4 Bhikaji Cama Place, New Delhi 110066",DELHI,sm.bcp@samarahonda.com,"9717093302, 01149777888",NA, SMS Address
DD143,Paras Honda ,Showroom & Workshop,26.25117,73.00319,NA,,"B-32, Near Alcobex Metals, Heavy Industrial Area, Jodhpur, Rajasthan, 342003",JODHPUR,NA,"9694055525, 02912745252",NA, SMS Address
DD070A,Pride Honda ,Showroom,17.41204,78.43498,NA,M/S SREE KRISHNA AUTOMOTIVES HYD PVT LTD,"#8-2-699/2, Road No. - 12, Banjara Hills, Hyderabad - 500034",HYDERABAD,bmbh12@pridehonda.in salesbh@pridehonda.in,"9505201007, 9505021315 ",NA, SMS Address
DD156,Green Honda ,Showroom,17.99308,79.59245,NA,KAPIL MOTORS PVT. LTD.,"Plot No.38,Opposite Govt Polytechnic College, Srinivasa Colony, Warangal - 506002",WARANGAL,sm_warangal@greenhonda.in teamleader.warangal@gmail.com crm_warangal@greenhona.in servicemanager_greenhonda.in crm.service_warangal@greenhonda.in,"7799701912, ",NA, SMS Address
DD160#,Capital Honda ,Workshop,11.86175,79.79139,NA,AADIT AUTO COMPANY PVT LTD,"No:1 & 1A,Abhishegapakkam Main Road,Thavalakuppam Junction,Ariyankuppam,Puducherry - 605007",PUDUCHERRY,crm.pondy@capitalhonda.in sqm.pondy@capitalhonda.in srm.pondy@capitalhonda.in,"9940639232, 9940313725, 9940009002, 9500028263",0413-2600034, SMS Address
DD159,Aditya Honda ,Showroom,21.00222,75.57771,NA,Aditya Honda,"Plot No. 26/1/2A, Ajanta Square, Ajanta Road, Jalgaon. 425 001 (Showroom)",JALGAON,info@adityahonda.com,2572210508,NA, SMS Address
DD162,Crown Honda ,Showroom & Workshop,28.63109,77.3786,NA,Action Automotives Pvt Ltd,"H-5, Sector â€“ 63, NOIDA",NOIDA,sales@crownhonda.inservice@crownhonda.in," 01204700000, 8527995500, 01204700000, 8527995555",NA, SMS Address
DD165,Deep Honda ,Showroom & Workshop,30.18081,74.96103,NA,Deep Honda,"600 METER FROM ITI FLYOVER MANSA ROAD,BATHINDA",BATHINDA,sales@deephonda.com,"01646999990, 01646999991",0164-2241777, SMS Address
DD163,Araceli Honda ,Showroom,26.76472,82.09084,NA,MGS Infrabuild Pvt. Ltd,"PLOT NO. - 362 Kha, HAZIPUR SINGHPUR,TAHSIL SAHAWAL, DISTT. AYODHYA - 224001",FAIZABAD,gmsales@aracelihonda.co.in gmservice@aracelihonda.co.in," 9554166668, 05224069494, 7311100963",NA, SMS Address
DD099A,Olympia Honda ,Showroom,13.08764,80.21832,NA,Khivraj Vahan Pvt. Ltd.,"E-99, 3rd Avenue, Near HP Petrol Bunk,",CHENNAI,seniorsalesmanager@olympiahonda.co.in,9841734361,NA, SMS Address
DD164,Apco Honda ,Showroom,11.24921,75.79879,NA,Apco Cars Pvt Ltd.,"27/1442 A& B, Mini Bye Pass Road,PO Puthiyara(Showroom),",CALICUT,Smsalesclt@apcohonda.com,8111888411,8111888411, SMS Address
DD158,Pinnacle Honda ,Showroom & Workshop,23.66408,87.05781,NA,Pinnacle Honda,"Plot no. 634,635,636 and 637 Mouza Bogra, on NH2, P.S. Jhamuria, Asansol, District Burdwan,",ASANSOL,salesmanager.asansol@pinnaclehonda.comservicemanager.asansol@pinnaclehonda.com,"9163338395, 9474119425",NA, SMS Address
DD168,Premium Honda ,Showroom & Workshop,14.71279,77.60161,NA,Premium Honda,"8/705, NH-44, Near National Part, Ravjeev Nagar, Ananatapur - 515001",ANANTHAPUR,salesmanager@premiumhonda.com,"9100056555, 9866065777",(08554) 273873, SMS Address
DD170,Express Honda ,Showroom & Workshop,13.63063,79.44609,NA,LM Automotive (India) Pvt. Ltd,"11/12 B2, Near Cotton Mill, Renigunta Road, Tirupati - 517501 ",TIRUPATI,salestpt@expresshonda.com ,"9959900130, 8500850111",NA, SMS Address
DD166,Vidhata Honda ,Showroom & Workshop,30.8625,75.7205,NA,AKC Motors Pvt. Ltd.,"Ferozepur Road, Near Kothari Resorts, V.P.O. Gahaur",LUDHIANA,info@VidhataHonda.com,"911615105100, 8558844400, 8558836601, 8558836602",+91 161 5105101, SMS Address
DD171,Harmony Honda ,Showroom & Workshop,30.72028,76.70321,NA,Harmony Honda,"C-107, Industrial Area Phase 7",MOHALI,sales.mohali@harmonyhonda.in info.mohali@harmonyhonda.in  joshihonda@gmail.com,"01725044044, 919915762165, 919876544721",0172-5027800, SMS Address
DD050A,Ring Road Honda ,Showroom,28.57452,77.06738,NA,Ring Road Honda,"Plot no- 229, Sector-9, Dwarka",DELHI,sqm_dwk@rrhonda.com,1141990000,NA, SMS Address
DD167,Hans Honda ,Showroom & Workshop,25.31117,82.96761,NA,Hans Honda,"PAMA complex, DLW-Lahartara road",VARANASI,gmsales@hanshonda.com,"917705800131, 917705800141",NA, SMS Address
DD176,Crystal Honda ,Showroom,17.6863,74.0211,NA,Crystal Honda,S.No-15/18-B,SATARA,nileshkalbhor88@yahoo.co.in,9158882206,NA, SMS Address
DD174,Manchester Honda ,Showroom,11.02168,76.99469,NA,Ramani Automobiles Pvt. Ltd.,"1305, Avinashi Road, Peelamedu",COIMBATORE,sales@manchesterhonda.co.in,9500944414,NA, SMS Address
DD348, landmark Honda  ,Showroom & Workshop,22.48016,70.11987,NA,Landmark Automobiles Pvt. Ltd.,"Survey No. 422, Rajkot Jamnagar Highway, Hapa, Jamnagar - 361120",JAMNAGAR,sale_jamnagar@landmarkindia.net,7567883018,NA, SMS Address
DD180,Joy Honda ,Showroom & Workshop,29.13169,75.76392,NA,Joy Honda,"Plot No-2, Near Jeet Dharam Kanta, OP Jindal Marg",HISSAR,saleshisar@joyhonda.in servicehisar@joyhonda.in,"01662223015, 01662223017",NA, SMS Address
DD177,Perfect Honda ,Showroom & Workshop,8.517102,76.8978,NA,M/S POTHEN VEHICLES & SERVICES PVT. LTD.,"TC No-79/ 169(2) .Near Toll Booth, NH By Pass Road, Oruvathilkottah, Anayara PO",THIRUVANANTHAPURAM(TRIVANDRUM),sales@perfecthonda.in,"04716622777, 8111891234, 7558922777, 9656822277",NA, SMS Address
DD181,Southern Honda ,Showroom & Workshop,8.66822,77.71799,NA,ANTON MOTOCORP PVT LTD,"7/146 A, NAGERCOIL ROAD, TAKKARAMMALPURAM",TIRUNELVELI,sales@southernhonda.in,"04622006111, 09629194291, 04622006222, 07708045530",NA, SMS Address
DD178,Girnar Honda ,Showroom & Workshop,20.96899,77.78797,NA,GIRNAR AUTOVENTURES PVT. LTD,"18/5, RAHATGAON, NEXT TO SAMARTH RAMDAS SWAMI MANDIR, NAGPUR ROAD",AMRAVATI,sales@girnarhonda.com,"07212970213, 7767816171 07212970313, 7767816181",NA, SMS Address
DD183,Pace Honda ,Showroom & Workshop,28.2035,76.66449,NA,Vardhmaan Trucking Pvt. Ltd,"khewat No. 21,Khataoni No. 37-38,Kila No.1/1(0/7),Village Phideri",REWARI,service@pacehonda.com,"01274251600, 08222991313",NA, SMS Address
DD185,Kaizen Honda ,Showroom & Workshop,17.71266,75.85516,NA,Kaizen Auto Cars Pvt. Ltd,SY No. 73B/8/6 Opposite Dhoodh Pandhari Pune Solapur Highway,SOLAPUR,carsales@kaizenhonda.comcarservice@kaizenhonda.com,"7720044000, 7720041206, 7720041205, 7722033201",NA, SMS Address
DD187,Crystal Honda ,Showroom & Workshop,18.57953,73.97515,NA,Kothari Auto Link Pvt. Ltd.,"Kothari Auto Link Pvt Ltd, S.NO. 1325/1, Pune- Nagar Highway,Wagholi, Opp sai Maruti Showroom,Tal Haveli Dist Pune- 412207",PUNE,Salesmanager.wagholi@crystalhonda.comservicemanager.wagholi@crystalhonda.comcrm.wagholi@crystalhonda.com,9158882245,NA, SMS Address
DD186,Ayida Honda ,Showroom & Workshop,25.90203,93.75079,NA,AYITO AUTO PRIVATE LIMITED,"Ayida Honda, Opposite Vijaya Bank, Naharbadi Dimapur, Nagaland - 797112",DIMAPUR,NA,8657588446,NA, SMS Address
DD189,Pride Honda ,Showroom & Workshop,18.63416,78.17762,NA,Pride Honda,"Sree Krishna Automotives Hyd.Pvt Ltd. Sy.No- 743,744, Bhardipur Village Dichpally Mandal",NIZAMABAD,bmnzb@pridehonda.in,"9553808000, 9553983332",NA, SMS Address
DD201,Emerald Honda ,Showroom & Workshop,21.74591,72.07764,NA,Emerald Honda,"Plot No - 301/4, 301/5, Vertej Industrial Estate, Bhavnagar Rajkot Highway, Bhavnagar - 364004",BHAVNAGAR,sm.bhavnagar@emeraldhonda.comshailesh.joshi@emeraldhonda.com,"9328008008 ,7622008800",NA, SMS Address
DD192,Gopinathji Honda ,Showroom & Workshop,21.75744,73.01882,NA,Shree Gopinathji Cars Pvt Ltd,"NH-8, Near Atithi Resort",BHARUCH,salesmanager@gopinathjihonda.in,9879618805,NA, SMS Address
DD195,Riverside Honda ,Showroom & Workshop,16.85167,74.59749,NA,Riverside Honda,"Plot no- F-3A,B, Debonair House Vishrambag",SANGLI,riversidesangli@yahoo.com,9922227699,NA, SMS Address
DD191,Legend Honda ,Showroom & Workshop,29.82453,76.42226,NA,Opulent Automobiles (P) Ltd.,"Opulent Automobiles (P) Ltd. 4th Mile Stone, Ambala Road, Kaithal",KAITHAL,NA,"8813030321, 8813030327",NA, SMS Address
DD194,Shree Honda ,Showroom & Workshop,22.61994,88.46269,NA,SHREE CARS PVT LTD,"Auto Hub IID/9, Aakankha More, Major Arterial Road, Rajarhat Main Road, Kolkata 700157",KOLKATA,NA,"8335045000, 9830963006",NA, SMS Address
DD190,Express Honda ,Showroom & Workshop,16.32284,80.47735,NA,LM Auto Motive India Pvt Ltd,"Plot No â€“ 556, Auto Nagar, Guntur â€“ Andhra Pradesh - 522001",GUNTUR,smgnt@expresshonda.com servicehead@expresshonda.com,"08632323452, 7675981222, 7680909743",NA, SMS Address
DD196,Merit Honda ,Showroom & Workshop,28.79718,76.1655,NA,SPL Motors Pvt Ltd,"SPL Motors Pvt Ltd, Rohtak Road, Bhiwani-127021",BHIWANI,NA,8222990100,NA, SMS Address
DD202,Vision Honda ,Showroom & Workshop,9.254691,76.81467,NA,Vision Motors Pvt Ltd,"Vision Motors Private Limited, Kumbazha - Konni Road, Thenghumkavu, Mallassery, PO - Pathnamthita - 689646 Kerala",PATHNAMTHITTA,salesmgrpta@visionhonda.com,"04682323660, 04682323650, 918606986692",NA, SMS Address
DD206,Elegant Honda ,Showroom & Workshop,29.93695,76.90183,NA,KISHIV MOTORS PVT LTD,"Near Umri Chowk, NH-1, G.T. Road, Kurukshetra, Haryana - 131136",KURUKSHETRA,saleskkr@kmpl.net.in,"9992221986, 01744278088, 01744278089, 8222889961, 01744278090",NA, SMS Address
DD197,Krishna Honda ,Showroom & Workshop,22.23979,84.74852,NA,Krishna Honda,"Plot no BL/8, Revenue Plot 494, Kalunga Industrial Estate,Beldhi, District, Rourkela, Sundergarh District, Odisha",ROURKELA,krishnahonda12@gmail.com,"7852941758, 07852941115",NA, SMS Address
DD200,Metro Honda ,Showroom & Workshop,17.47939,78.47391,NA,VSN Automobiles Pvt. Ltd.,"Showroom & Workshop- Sy. No. -33 Medchal Highway NH-7, Bowenpally, Near Checkpost, RR District,Secunderabad",HYDERABAD,info@metrohonda.in,"04027952021, 04027952029, 919581456001, 919581456747",NA, SMS Address
DD204,Prestige Honda ,Showroom & Workshop,30.25036,75.91154,NA,LALLY MOTORS (P) LIMITED,"Village Khurana,Near Golden Earth Global Public School, Patiala Road,Sangrur.148001",SANGRUR,salessgr@lallymotors.net,9876150834,NA, SMS Address
DD203,Signature Honda ,Showroom & Workshop,12.5126,75.02957,NA,Signature Automobiles India Pvt. Ltd.,"SANTHOSH NAGAR,P.O ALAMPADY,KASARGOD PIN-671123 , KERALA",KASARGOD,signaturehondaksd@thebusinesshouse.org,9745002288,NA, SMS Address
DD199,Star Honda ,Showroom & Workshop,24.57633,80.80704,NA,Star Honda,"Virat Nagar, Pateri, Panna Road, Satna",SATNA,NA,"07672230553, 07672230554, 07672230550",NA, SMS Address
DD198,Golden Honda ,Showroom & Workshop,28.10485,73.36224,NA,M/s. Sunehri Automotive Pvt. Ltd.,"Sri Ganga Nagar, Jaipur Bypass, Nagasar, Bikaner - 335001",BIKANER,sales@goldenhonda.co.in,"7,02,30,03,70,17,02,30,00,000",NA, SMS Address
DD184A,Prashant Honda ,Showroom,26.11928,85.37717,NA,Prashant Honda,"Khata No . 131, Khesra No . 240, Lenin Chowk Kalambagh Road, Muzaffarpur, Bihar -842001 ",MUZAFFARPUR,NA,NA,NA, SMS Address
DD205,Pinkcity Honda ,Showroom & Workshop,28.18133,76.82018,NA,Pinkcity Motors Pvt. Ltd,"Pink City Honda Alwar-Bhiwadi byepass road, Sector 27, Khijuriwas, Bhiwadi, Rajasthan 301019 Landmark opp Nimai Greens",BHIWADI,salesbhiwadi@pinkcityhonda.com,"7023004544 ,7023004547, 917014292543, 91919116111388, 7023004549",NA, SMS Address
DD216,Swati Honda ,Showroom & Workshop,29.90989,77.51669,NA,SAMYAK AUTO ENGINEERS PVT LTD,"6.5 Km, milestone, Opp Rainbow School, Delhi Road Saharanpur",SAHARANPUR,sales@swatihonda.com,"9927700213, 9927700216",NA, SMS Address
DD210,Central Honda ,Showroom & Workshop,20.28436,85.83533,NA,CITY MOTORS PVT LTD,"City Center Plot-A-5/1 Unit-9 Sachivalaya Marg,Bhuvaneswar-751022",BHUBANESWAR,sales@centralhonda.in,"8599005858, 9583105555, 9078000333",NA, SMS Address
DD209,SANGAI HONDA ,Showroom & Workshop,24.77596,93.90785,NA,ORIENTAL VISION ENTERPRISES PVT. LTD.,"GHARI, AIRPORT ROAD, IMPHAL, MANIPUR - 795001",IMPHAL,salesmanager@sangaihonda.in,7375006586,NA, SMS Address
DD212,Regent Honda ,Showroom & Workshop,19.25573,72.97164,NA,Tejpal Motors Pvt. Ltd.,"Plot No 1, Mohan Mill Compound, Ghodbunder Road, Next to R- Mall, Thane West. Maharashtra-400607",THANE,crmsales@regenthonda.co.in service@regenthonda.co.in,"02243114311, 9136119380,  7718897051",NA, SMS Address
DD321,Samara Honda ,Showroom,28.57403,77.23859,NA,Samara AutoMax Pvt Ltd (Showroom),"B-35, Lajpat Nagar â€“ 2,New Delhi 110024",DELHI,sm@samarahonda.com,"01146555111, 8826143300",NA, SMS Address
DD223,AKSHAY HONDA ,Showroom & Workshop,20.85216,74.76299,NA,Akhsay Cars Pvt. Ltd.,"P-21, Additional Dhule Industrial Area Malegaon Road, Avdhan Dhule - 424006",DHULE,NA,"07770039039, 07770049049, 02562281991",NA, SMS Address
DD218,Malwa Honda ,Showroom & Workshop,28.95928,77.09152,NA,Malwa Motors Pvt. Limited,"Waka Rakba Mauja - Livaspur, Bahalgarh, Dist Sonipat Haryana 131001",SONIPAT,gmservice@malwahonda.in gmsales@malwahonda.in,"01304092250, 01304092251, 01304092252, 013080803, 013080804, 9467800903, 9467800904",NA, SMS Address
DD207,Infinity Honda ,Showroom,28.40683,77.04253,NA,Frontier Vehicles Pvt Ltd.,"01A, Ground Floor, Sohna Road, Vipul Trade Centre, Sector - 48, Gurgaon, Haryana - 122002",GURGAON,servicehead@frontiervehicles.com,"7290023171, 7290023172, 7290023173, 7290023174, 7290023175",NA, SMS Address
DD215,Planet Honda ,Showroom,28.82725,78.72452,NA,Planet Honda Moradabad,"Karan Ashok Auto Pvt. Ltd., Delhi Road, Opp. Radha Krishna Mandir",MORADABAD,NA,"7055123456 , 7055504930",NA, SMS Address
DD121A,Eastern Honda ,Showroom,22.53906,88.3505,NA,B.D. AUTOMOBILES PVT. LTD.,"226/1, Acharya Jagdish Chandra Bose Road,Trinity Towers, Near Minto Park Kolkata â€“ 700 020.",KOLKATA,sales@easternhonda.in service@easternhonda.in," 03366046604, 9903999039",NA, SMS Address
DD041A,Highway Honda ,Showroom,20.4761,85.8771,NA,Aditya Car Automotive Pvt. Ltd.,"C/B-14, CANTONMENT ROAD, CUTTACK-753001(Showroom).",CUTTACK,cuttack.sales@highwayhonda.com,7873999977,NA, SMS Address
DD044A,Pushp Honda ,Showroom,26.40885,80.39464,NA,Smart Cars Ltd.,"246-247 G.T. Road Chakeri, Near Chakeri Airport Kanpur (U.P.) 208008",KANPUR,servicechakeri@pushphonda.com,7080406110,NA, SMS Address
DD169A,Stallion Honda ,Showroom,26.87064,80.97103,NA,Stallion AutoSales Pvt.Ltd,"A-16, Indiranagar, Lucknow- 226016",LUCKNOW,NA,8009890033,NA, SMS Address
DD184,Prashant Honda ,Showroom & Workshop,26.05411,85.359,NA,PRASHANT AUTOMOBILES PVT LTD,"NH - 77, VILL. - Po - Sakri Saraiya, Ps - Kundhani, Distt - Muzaffarpur, Bihar - 844127",MUZAFFARPUR,NA,9431239171,NA, SMS Address
DD037,Deccan Honda ,Showroom,19.87359,75.3161,NA,BAFNA AUTO CARS (I) PVT. \LTD.,"MBC TOWERS, MAHAVIR CHOWK, ADALAT ROAD, AURANGABAD- 431001",AURANGABAD,sqmsalesabad@deccanhonda.com crmaurangabad@deccanhonda.com,"9373539666, 9373344303",NA, SMS Address
DD152,Sundaram Honda ,Showroom & Workshop,11.05944,77.34306,NA,M/s T.V.Sundaram Iyenagar & Sons Ltd.,"CIBI Avenue,  TKTMill Bus Stop, Palladam Road, Tirupur - 641 605",TIRUPPUR,honsalmgr_tpr@sundarammotors.com honsermgr_tpr@sundarammotors.com,"04212218125, 9600354477, 04212216512, 9677761628",NA, SMS Address
DD151,Sundaram Honda ,Showroom & Workshop,11.32827,77.69427,NA,M/s T.V.Sundaram Iyenagar & Sons Ltd.,"191/1, Perundurai road, Palaya Palayam, Surampatti village, Erode-638011, Tamilnadu",ERODE,NA,"04242271048, 04242271047",NA, SMS Address
DD052B,Courtesy Honda ,,28.53884,77.26888,NA,Lally Automobiles Pvt Ltd.,"Wearhouse:- D-11, INDUSTRIAL AREA PHASE-I, OKHLA, NEW DELHI-110020",DELHI,serviceokhlad11@lallyautomobiles.net,011-49814444,NA, SMS Address
DD052A,Courtesy Honda ,Workshop,28.70531,77.17264,NA,Lally Automobiles Pvt Ltd.,"A - 3, Block - B, Wazirpur Industrial Area, Wazirpur New Delhi - 110052",DELHI,NA,"9717993611, 01143200000",NA, SMS Address
DD344B,Landmark Honda ,Workshop,22.97597,72.60052,NA,Landmark Automobiles Pvt. Ltd.,"Narol - Naroda Highway, Near M&M Petrol Pump, Opp. Paras Furniture, Isanpur Cross Road, Ahmedabad - 382445 ",AHMEDABAD,NA,8657589311,NA, SMS Address
DD026B,Prime Honda ,Workshop,28.64169,77.3147,NA,Capital Cars Pvt. Ltd.,"  206, FIE, Patparganj Industrial Area, Delhi - 110092",DELHI,crmserviceppg@primehonda.commail@primehonda.com   ,7375004990,NA, SMS Address
DD228,Narbheram Honda ,Showroom & Workshop,22.80373,86.12171,NA,NARBHERAM MOTORS PVT LTD,"M-4, Phase-VI, Adityapur Industrial Area, P.O. Gamaria, Dist Seraikella-Kharswan-832108",JAMSHEDPUR,gracehonda.gmsales@narbheram.com gracehonda.parts@narbheram.com gracehonda.sm@narbheram.com gracehonda.sqm@narbheram.com gracehonda.service@narbheram.com,"9204069853, 9297800090, 9031011042, 9031011038, 9798303148, 9204069852, 9204069844",NA, SMS Address
DD219,Alpha Honda ,Showroom & Workshop,15.85298,74.50605,NA,GCD Motor Pvt. Ltd.,"M/s. GCD Motor Pvt Ltd, 17, Devrajya, Camp, Belagavi â€“ 590001",BELAGAVI (BELGAUM),sales@alphahonda.com,"08312406200, 08312406222",NA, SMS Address
DD232,Kaizen Honda ,Showroom & Workshop,18.40884,76.54073,NA,Kaizen Auto Cars Pvt. Ltd.,"Plot No:P-49, MIDC Industrial Area, Barshi Road, Near Ekmat Office, Latur 413512",LATUR,carsaleslatur@kaizenhonda.com,"02382222244, 02382220130",NA, SMS Address
DD234,Joy Honda ,Showroom & Workshop,29.52781,75.11897,NA,Ashwani Cars (P) Ltd,"Near Maharaja Palace, Dabwali Road Sirsa, PIN - 125055",SIRSA,smsirsa@joyhonda.in,"01666242002, 8222033023, 01666242003, 8816055561",NA, SMS Address
DD242,Balaji Honda ,Showroom & Workshop,12.94748,79.20856,NA,Balaji Autocare Pvt Ltd,"#99/4 b1, Perumugai Village, Vellore-632009",VELLORE,sales@balajihonda.in,41646777777,NA, SMS Address
DD238,Capital Honda ,Showroom & Workshop,10.74084,79.12806,NA,AADIT AUTO COMPANY PVT LTD,"202/7B, TRICHY EXPRESS WAY(BY PASS ROAD), NANJIKOTTAI VILLAGE,THANJAVUR 613007(Showroom & Workshop)",THANJAVUR,sales.thanjavur@capitalhonda.in,"04362256000, 9244994000, 04362256602",NA, SMS Address
DD237,Cartec Honda ,Showroom & Workshop,23.09715,72.66476,NA,"CARTEC MOTORS PVT LTD,","3, HITENDRANAGAR SAHKARI AUDHYOGIK VASAHAT LTD, OPP. DIAMOND PARK, NR NARODA RAILWAY CROSSING , NARODA, AHMEDABAD : 382340",AHMEDABAD,sales@cartechonda.com,"07940607080, 7573000700, 07940607070, 7573000707",NA, SMS Address
DD235,Maansarovar Honda ,Showroom & Workshop,13.03773,80.16376,NA,Maansarovar Automobiles Pvt Ltd.,"No.15, Arcot Road, Porur Chennai-600116. Tami Nadu",CHENNAI,gm@maansarovarhonda.in,8939828008,NA, SMS Address
DD222,Eastern Honda ,Showroom & Workshop,22.61299,88.27044,NA,B.D.AUTOMOBILES (P) LTD.,"NH6,Salap II, Munshidanga, Jublimath, Howrah - 711403 (Salap More/Lal Bari Bus Stop)",HOWRAH,howrah@easternhonda.in sm.servicehwh@easternhonda.in,"03366086608, 03366086608, 9007990079",NA, SMS Address
DD227,Libra Honda ,Showroom & Workshop,23.82426,86.53878,NA,LIBRA AUTOSALES PVT. LTD.,"At : Ratanpur, P.O. & P.S. - Govindpur, Dist. â€“ Dhanbad, Jharkhand â€“ 828 109",DHANBAD,NA,"7360072555, 9031017010",NA, SMS Address
DD230,Sheetal Honda ,Showroom & Workshop,29.8864,73.90054,NA,Paras Auto Wheels PVT LTD,"Vill. - 3ML, Hanumangarh - Suratgarh Bye Pass Road, SriGanganagar, Rajasthan - 3355001",SRI GANGANAGAR,sales@sheetalhonda.comservice@sheetalhonda.com,"8696901241, 9829211525",NA, SMS Address
DD231,Shubh Honda ,Showroom & Workshop,21.2137,81.28986,NA,Karan City Automobiles Pvt. Ltd,"Durg-Rajnandgaon Bye Pass Road, Near Toll Plaza, Bhilai, Dist. - Durg, Chattisgarh",BHILAI,NA,8657589095,NA, SMS Address
DD247,Premium Honda ,Showroom & Workshop,15.84384,78.00832,NA,P M Cars Pvt. Ltd.,"# 322/B NH44, Santosh Nagar, Opp. TGV Petrol Bunk, Kurnool - 518004 ",KURNOOL,agm@premiumhonda.com,"9100102999, 9866065777",NA, SMS Address
DD245,Central Honda ,Showroom & Workshop,21.49122,83.96902,NA,CITY MOTORS PVT LTD,"D-2/9, Bareipalli Industrial Estate, Ainthapalli, Sambalpur - 768006, Odisha",SAMBALPUR,salessbp@centralhonda.in,"06636550120, 06636550121",NA, SMS Address
DD243,Deep Honda ,Showroom & Workshop,30.45258,74.51913,NA,Deep Automobiles Pvt. Ltd.,"Sartaj Palace,mansa road bathing.Near mahindra cars, Bhatinda",MUKTSAR,NA,"8725009654, 8725037113",NA, SMS Address
DD241,Brigade Honda ,Showroom & Workshop,13.10814,77.60389,NA,Sri Lakshmi Automobiles Pvt. Ltd.,"Ward No - 01, Venkatala Village, Khata No - 1129/23/4A/23/3, Yelahanka Habli, Bangalore, Karnataka - 560064",BANGALORE,sales@brigadehonda.com,"7899771190, 08069558888",NA, SMS Address
DD236,Apco Honda ,Showroom & Workshop,11.06379,76.07847,NA,APCO CARS PRIVATE LIMITED,"Swalath Nagar, Melmuri P.O. Malappuram 676517",MALAPURAM,salesmpm@apcohonda.com servicempm@apcohonda.com,"04832901111, 8111888332, 04832901000, 8111888333",NA, SMS Address
DD240,Shama Honda ,Showroom & Workshop,13.37694,74.74222,NA,Shama Matrix Cars Pvt. Ltd.,"3-58E, NH-66, Ambagilu, Udupi-576105",UDUPI,sales@shamahonda.comservice@shamahonda.com,"08202581999, 9740368811, 9740242211, 08202581111, 9880294466, 9611599233,",NA, SMS Address
DD249,Axon Honda ,Showroom & Workshop,28.70348,77.45049,NA,Axon Autotec Pvt. Ltd,"A -8 Plot No 1 & 2 Sector 22 Meerut Road Industrial Area ,Ghaziabad-201003",GHAZIABAD,sales@axonhonda.comservice@axonhonda.com,"01202784002, 9599293870, 01202784001, 9599293855",NA, SMS Address
DD251,Dream Honda ,Showroom & Workshop,20.26917,72.97609,NA,Jivan Jyot Motors Pvt. Ltd,"Survey No â€“ 14/1/1, Besides Reliance Petrol Pump, Athal, Silvassa â€“ 396230",SILVASSA,sales.silvassa@dreamhonda.in service.silvassa@dreamhonda.in,"02606452201, 02606452201, 9099911404, 9328866664, 9879100422",NA, SMS Address
DD253,Prakash Honda ,Showroom & Workshop,32.27411,75.63975,NA,M/s Shagun Automobiles Pvt. Ltd,Batala Road Gurdaspur Pin code-143521,PATHANKOT,sm@prakashhonda.com wm@prakashhonda.com,"8725054001, 8725054011, 01862225759",NA, SMS Address
DD259,Castle Honda ,Showroom & Workshop,25.4687,78.6608,NA,SHREE RAM RAJA CARS PVT. LTD.,"741, DIGARA, KANPUR ROAD, JHANSI - 284128",JHANSI,sales.castlehonda@gmail.comservice.castlehondajhansi@gmail.com,"7052801555, 7052802555",NA, SMS Address
DD248,Platinum Honda ,Showroom & Workshop,28.72465,77.74959,NA,SJS AUTO SERVICES PVT. LTD.,"NEAR SABLI CROSSING, DELHI ROAD, HAPUR-245101(UP.)",HAPUR,sales.hapur@platinumhonda.comservice.hapur@platinumhonda.com,"01222314201, 01222314202, 09756799970, 01222314203, 01222314204, 07088002910",NA, SMS Address
DD257,Tristar Honda ,Showroom,26.91763,75.80103,NA,P.L.CARS PVT. LTD.,"BHAGWATI BHAWAN M.I. ROAD,GOVT HOSTEL CROSSING,JAIPUR, RAJ. 302001",JAIPUR,sales@tristarhonda.com salesinternal@tristarhonda.com sqm@tristarhonda.com,"9116040036, 9116040038, 7300077522",NA, SMS Address
DD264,Sky Honda ,Showroom & Workshop,22.01416,78.93041,NA,"Shubh Cars Pvt Ltd,","Sky Tower, NH-547, Nagpur Road, chhindwara (M.P) 480001",CHHINDWARA,sales@skyhonda.com service@skyhonda.com,"08226006880, 08226006875",NA, SMS Address
DD266,Courtesy Honda ,Showroom & Workshop,29.31828,76.9891,NA,Lally Automobiles Pvt. Ltd.,"708/798, Opp DAV Police Public School Vill. - Siwah, G.T. Road, Panipat - 132108 Haryana",PANIPAT,NA,1806517771,NA, SMS Address
DD262,Bharat Honda ,Showroom & Workshop,17.36229,76.85249,NA,Paarth Motors Pvt. Ltd,"D1,D2, Kapnnor Industrial Area,1st Stage, Gate No. 1, Ring Road, Gulbarga Karnataka",GULBARGA,NA,84722590555,NA, SMS Address
DD349,Landmark Honda ,Showroom & Workshop,22.7894,75.9071,NA,Landmark Motors,"UG-I, A-D, Onam Plaza, 18 A.B. Road, Old Palasia, Indore - 452001.",INDORE,sales.indore@landmarkindia.net,"07316628300, 7225060821",NA, SMS Address
DD265,Solutions Honda ,Showroom & Workshop,24.78271,84.98843,NA,M/s. Poddar Solutions Pvt Ltd,"Near Gaya College, Rampur, PS - Rampur , Jail Road, Gaya - 823001",GAYA,sales@solutionshonda.in crm@solutionshonda.in,"06312220528, 06312220950",NA, SMS Address
DD263,Prince Honda ,Showroom & Workshop,11.62857,92.72573,NA,Prince Honda,"A.T.R Road.Pahargaon,Port Blair,Andaman-744103",PORT BLAIR,NA,"03192250613, 03192250614",NA, SMS Address
DD268,Vision Honda ,Showroom & Workshop,11.29475,75.76408,NA,Vision Motors Pvt Ltd,"Building No 39/53 A&B, Post West Hill, Chungam, Calicut-673005",CALICUT,salesclt@visionhonda.com,"04952384499, 04952386699, 8606689111, 04952386655, 04952386788, 8606165111, 8606165222",NA, SMS Address
DD275,Inspire Honda ,Showroom & Workshop,12.99414,76.07474,NA,M/s. Shah Automotives Pvt. Ltd.,"B M Road, Doddamandigana Halli, (D.M.Halli) Hassan- 573217",HASSAN,management@inspirehonda.com,9742297444,NA, SMS Address
DD177A,Perfect Honda ,Showroom & Workshop,8.535438,76.94227,NA,M/s Pothen Vehicles & Services Pvt. Ltd.,"Building No. - Tc 14/202(1), Tc 14/202(2) & Tc 14/202(3), Paruthippara, Trivandrum",THIRUVANANTHAPURAM(TRIVANDRUM),NA,"04716580003, 04716580005, 811188123",NA, SMS Address
DD267A,ADMIRE HONDA ,Workshop,30.24454,78.09866,NA,M/s Lord Wheels Pvt. Ltd.,"3S - Opposite Doon Distilleries, Haridwar Road, Kuanwala Dehradun - 248001",DEHRADUN,sales@admirehonda.com crmsales@admirehonda.com,"01352712028, 01352712029, 7088070880, 7088007001, 7088007012",NA, SMS Address
DD003E1,Prestige Honda ,Showroom & Workshop,30.68082,76.26441,NA,LALLY MOTORS PVT. LTD.,"3S - Vill. - Alour, G. T. Road, Near Presine Mall, Khanna, Punjab - 141401",KHANNA,NA,"8146610600, 01628509777",NA, SMS Address
DD070A1,Pride Honda ,Showroom,17.38504,78.48667,NA,SRI KRISHNAN AUTOMOTIVES HYDERABAD PVT. LTD.,"1S -Primise No. - 5-2/222/IPA, Sy No. - 222, Madinaguda, Serilingampally Mandal, Hyderabad - 500050",HYDERABAD,NA,8657589302,NA, SMS Address
DD270,AVANTIKA HONDA ,Showroom & Workshop,23.12517,75.83807,NA,NAHATA MOTORS PVT LTD,"SURVEY NO 17/1/2/1 VILL CHANDESRI,OPP AMUL FACTORY,UJJAIN-DEWAS STATE HIGHWAY.UJJAIN",UJJAIN,sales@avantikahonda.comservice@avantikahonda.com,"7400581000, 7400582000, 7400086000, 7400084000",NA, SMS Address
DD119A,Green Honda ,Showroom,17.36947,78.51541,NA,M/S Kapil Motors P Ltd,"Ground Floor, Asmangadh, Gaddinannaram, Malakpet, Hyderabad - 500001",HYDERABAD,sm_malakpet@greenhonda.in,7799991163,NA, SMS Address
DD267,ADMIRE HONDA ,Showroom,30.31702,78.04969,NA,M/s Lord Wheels Pvt. Ltd.,"42 EC Road, Opp Hillgrange School , Dwarka Store , Dehradun, Uttarakhand 248001",DEHRADUN,sales@admirehonda.com,7088007001,NA, SMS Address
DD271,SMARTCITY HONDA ,Showroom & Workshop,23.17045,77.46281,NA,WIN WIN AUTO PVT LTD,"NH12, HOSHANGABAD ROAD, BHOPAL, Madhya Pradesh",BHOPAL,sales@smartcityhonda.com service@smartcityhonda.com,"07554069999, 7375004970",NA, SMS Address
DD280,INDEL HONDA ,Showroom & Workshop,10.76333,76.67326,NA,M/s. INDEL AUTOMOTIVES PVT. LTD.,"NH - 47, Kadamkode, (Near Cosmopolitan Club), Chandranagar, Palakkad - 678007",PALAKKAD,sm.sales@indelhonda.com sm.service@indelhonda.com,"04912507200, 9744722222, 04912507206, 9744133333 ",NA, SMS Address
DD212E1,Regent Honda ,Showroom,19.25739,73.09466,NA,Tejpal Motors Pvt Ltd,"Alliance Heritage, Unit 4 Ground Floor At Kongaon, Near Reliance Petrol Pump, Kongaon, Maharashtra- 421311",THANE,pradeep.mhatre@regenthonda.co.in,8828338879,NA, SMS Address
DD250#,Regent Honda ,Workshop,19.24556,73.11436,NA,Tejpal Motors Pvt Ltd,"Suryey No-36/20/1,2 & 36/28/2, Next to Precihole, Talathi Saja:Kon, Kalyan Bhiwandi Road, Taluka-Bhiwandi, Dist-Thane, Maharashtra- 421311",THANE,service_ Kalyan@regenthonda.co.in,7718887212,NA, SMS Address
DD273,Gopinathji Honda ,Showroom & Workshop,22.25923,73.18331,NA,"M/S Shree Gopinathji Cars Pvt Ltd,","79, GIDC Makarpura, Near Vadsar Bridge, Vadodara, Gujarat - 390010",VADODARA,NA,"7575002405, 7575002404",NA, SMS Address
DD293,Yash Honda ,Showroom & Workshop,24.19061,72.43189,NA,YASH AUTOLINK PVT LTD,"Opp. Gayatri Temple, Near OLD RTO Office, N.H.No:27, Palanpur, Dist: Banaskantha. Pin Code: 385001",PALANPUR,sales@yashhonda.in,"9909721888, 9099009709",NA, SMS Address
DD254,Legend Honda ,Showroom & Workshop,29.29156,76.32291,NA,Opulent Automobiles (P) Ltd.,"Near New Anaj Mandi, Rohtak Road, Jind - 126102",JIND,salesjind@legendhonda.in,"9728178621, 8813030360",NA, SMS Address
DD286,Southern Honda ,Showroom & Workshop,8.205552,77.37199,NA,M/s Anton MotoCorp. (P) Ltd.,"681/9B1, Karuppacodu Junction, Villukuri Road, Kalkulam Taluka, Kanyakumari District, Tamil Nadu - 629807",NAGERCOIL,salesmgrngl@southernhonda.in,"7338872171, 7338872170",NA, SMS Address
DD296,Pinkcity Honda ,Showroom & Workshop,27.26791,77.4381,NA,M/s. Pinkcity Motors Pvt. Ltd.,"NEAR HPC PETROL PUMP, DEEG ROAD , BHARATPUR (RAJ.)",BHARATPUR,salesbharatpur@pinkcityhonda.com servicebharatpur@pinkcityhonda.com,"7340021601, 7340021606",NA, SMS Address
DD285,Vibrant Honda ,Showroom & Workshop,27.9253,78.0292,NA,M/s. Bhalla Automobiles Private Ltd,6th Milestone; Vill- Bhikampur; Delhi GT Road; Aligarh,ALIGARH,sales@vibranthonda.co,"7088110052, 7088110053",NA, SMS Address
DD295,Green Honda ,Showroom & Workshop,18.41039,79.13921,NA,M/s. Kapil Motors Pvt. Ltd.,"Sy No 783 to 785 & 787, Near Manair Bridge,Rampur, Karimnagar - 505001",KARIMNAGAR,sm_karimnagar@greenhonda.in,9100032923,NA, SMS Address
DD269,Shaurya Honda ,Showroom & Workshop,23.23764,69.65514,NA,SHAURYA AUTO LINK PVT LTD,"PLOT NO 20, NR, BANK OF BARODA, BHUJ MIRZAPAR HIGHWAY BHUJ-KUTCH",BHUJ,shaurya honda @ gmail.com,"9825222377, 9825182077",NA, SMS Address
DD288,Deep Honda ,Showroom & Workshop,31.67097,74.88477,NA,M/s. Deep Automobiles Pvt. Ltd.,"Opp. Khanna Papers Mill, Near Matro Wholesale, Fategarh Churian, Road Byepass, Amritsar",AMRITSAR,salessr@deephonda.com,"01836999993, 01836999913",NA, SMS Address
DD290,PARAMOUNT HONDA ,Showroom & Workshop,26.15856,91.68049,NA,M/S SL Automobiles Pvt. Ltd.,"A.T. Road, Opp. Railway Gate No-1, Maligaon, Guwahati-781011, Assam",GUWAHATI,sales.head@paramounthonda.in,"7086054601, 7086029482, 7086054603, 7086054604",NA, SMS Address
DD292,Pride Honda ,Showroom & Workshop,17.08849,79.25473,NA,M/s. Sree Krishna Automotives Hyderabad Pvt. Ltd.,"sy no.107,opp manasa vicar marriguda village hyd road nalgonda",NALGONDA,sm.nlg@pridehonda.com,9848533268,NA, SMS Address
DD284,Vision Honda ,Showroom & Workshop,9.980556,76.54611,NA,Vision Motors Pvt Ltd,"Door No: 9/46A, Near RPS, Mekkadampu P.O, Muvattupuzha, Ernakulam - 682316",MUVATUPUZHA,asmmvp@visionhonda.com servicemgrmvp@visionhonda.com,"9567926977, 9895354545, 9072581846",NA, SMS Address
DD283,Vision Honda ,Showroom & Workshop,10.0057,76.31316,NA,Vision Motors Pvt Ltd,"34/574, NH BYPASS, PALARIVATTOM, ERNAKULAM, KERALA-682025",KOCHI (COCHIN),sales@visonhonda.comcreekmservice@visionhonda.com,"04844102222, 9567520005, 9567877544",NA, SMS Address
DD279,GLORY HONDA ,Showroom & Workshop,26.75331,94.18968,NA,PRAGTI AUTOTECH PVT. LTD.,"Tarajan, A.T Road  Jorhat 785001 (assam)",JORHAT,sale@glorhonda.in service@glorhonda.in,7086055513,NA, SMS Address
DD281,Central Honda ,Showroom,17.74164,83.328,NA,CITY MOTORS PVT LTD,"D.No.1-84-15,HIG 233 & 238, Dr.Challa Chambers, Sector-IV,MVP Colony,Isukathota Jn. Visakhapatnam-530017",VISAKHAPATNAM,sm.vizag@centralhonda.co.in,"8886635028, 8886635020",NA, SMS Address
DD272,Peninsular Honda ,Showroom & Workshop,9.523565,76.32819,NA,M/s. Patel Cars  Pvt. Ltd.,Peninsular Honda Near Matha School | Thumpoly Jn | Alappuzha |Kerala|India â€“ 688 007,ALLEPAY,alp.sales@peninsularhonda.com,"914773067777, 919072665506, 9895399000",NA, SMS Address
DD287,Palace Honda ,Showroom & Workshop,9.226192,76.47609,NA,Palace Automobiles Pvt. Ltd.,"Evoor South, Kerrkikad (PO), Rampuram, Kayamkulam, Alleppy, Kerala - 690508",ALLEPAY,sales@palacehonda.in," 04792475715, 04792475716",NA, SMS Address
DD298,Perfect Honda ,Showroom & Workshop,10.06801,76.32886,NA,POTHEN VEHICLES AND SERVICES PVT.LTD,"Door No 14/302-303 nh 47,near scms cochin,Muttam , Ernakulam-683106 ",ERNAKULAM,salescochin@perfecthonda.in,"04843003777, 8111912345, 8111923456, 04843003737, 81119991991, 8111988888",NA, SMS Address
DD297,Standard Honda ,Showroom & Workshop,26.92822,80.93522,NA,ICON CARS PVT LTD,"56 Bithauli Khurd, Bakshi Ka Talab, NH 24, Sitapur Road Lucknow 226021",LUCKNOW,sales@standardhonda.com,"9918023023, 9918024024, 9918026026, 9918029029",NA, SMS Address
DD345A,Landmark Honda ,Showroom,21.15186,72.77905,NA,Landmark Automobiles Pvt ltd,"Shop No. 4/5, Sapphire Business Hub, Opp. Green Arcase, Nr. Madhuvan Circle, Off L.P. SaVani Road, Adajan, Surat - 395009",SURAT,sales_surat@landmarkindia.net,7878773000,NA, SMS Address
DD299,Viva Honda ,Showroom,19.09016,72.83806,NA,VCM AGENCIES PVT LTD.,"Ground floor, Vikas Centre, S.V.Road, Near Milan Mall,
Santacruz (West). Mumbai- 400054",MUMBAI,teamsales@vivahonda.inteamservice@vivahonda.in,"02243777777, 7710040003",NA, SMS Address
DD291,Pace Honda ,Showroom & Workshop,28.11959,77.33226,NA,Pace Honda,"Bharat Colony, Opp Omaxe City, Main Mathura Road Palwal, Haryana- 121102 ",PALWAL,sales.palwal@pacehonda.com,"7056000033, 8130392100 ",NA, SMS Address
DD166E1,Vidhata Honda ,Showroom & Workshop,30.81266,75.29074,NA,AKC Motors Pvt Ltd,"AKC Motors Pvt Ltd.
Vidhata Honda
Adjoining Police Station, VPO Mehna, GT Road, Moga - 142011",MOGA,sales.moga@vidhatahonda.com Service.moga@vidhatahonda.com,"8354812345, 8354912345",NA, SMS Address
DD299A,Viva Honda ,Workshop,18.99,72.82,NA,VCM AGENCIES PVT LTD.,"115, Mulchand Niwas, Dr. E. Moses Road, Near Four Seasons Hotel, Worli, Mumbai, Maharashtra - 400 018",MUMBAI,crmservice@vivahonda.in,2245777777,NA, SMS Address
DD283A,Vision Honda ,Showroom,9.951366,76.29258,NA,Vision Motors Pvt. Ltd,"Door no-61/1343,Vilanassery Building,Perumanoor p.o,Thevara Jn,Kochi-682015",KOCHI (COCHIN),salesmgrekm@visionhonda.com,9567864839,NA, SMS Address
DD278,Impression Honda ,Showroom & Workshop,26.72952,88.43208,NA,IMPRESSION MOTORS PVT. LTD.,"ML ACROPOLIS, OPP. ANANDLOK HOSPITAL, SEVOKE ROAD, SILIGURI-734001",SILIGURI,sales@impressionmotors.in,8170005300,NA, SMS Address
DD278A,Impression Honda ,,26.71968,88.42588,NA,OSL Impressions Pvt. Ltd,"Industrial Estate, Sevoke Road, Siliguri - 734001",SILIGURI,NA,9830024764,NA, SMS Address
DD207A,Infinity Honda ,Workshop,28.36422,76.93525,NA,M/s Frontier Vehicles Pvt. Ltd.,"A-16, Infocity , Sector-34 Gurgaon-122001",GURGAON,crm.service@frontiervehicles.com,"7290028122, 7290028123, 7290028124, 7290028125, 7290028126",NA, SMS Address
DD163A,Araceli Honda ,Showroom & Workshop,26.85448,80.95245,NA,MGS Infrabuild Pvt. Ltd.,"Fortune Towers, 10 Rana Pratap Marg, Lucknow",LUCKNOW,NA,9554166668,NA, SMS Address
DD126E1,Signature Honda ,Showroom,11.75256,75.4855,NA,Signature Automobiles India Pvt. Ltd,"49/143/A, Saras Building Court Road, Thalassery, Kerala 670101",KANNUR,sm_hondaknr@thebusinesshouse.org,9400025002,NA, SMS Address
DD124A,Elegant Honda ,Workshop,30.36019,76.79568,NA,Kishiv Motors Pvt. Ltd.,"H.No - 279A, Model Town, Ambala, Haryana",AMBALA,NA,9812067777,NA, SMS Address
DD121A1,Eastern Honda ,Showroom,22.53931,88.36562,NA,M/s. B. D. Automobiles Pvt. Ltd,"9/1, Syed Amir Ali Avenue, (Near Quest mall) Kolkata - 700017",KOLKATA,agm.sales@easternhonda.in crm@easternhonda.in,"03366186618, 9903969086",NA, SMS Address
DD100E1,Vision Honda ,Extended Outlet Showroom,9.368102,76.58131,NA,Vision Motors Pvt. Ltd,"Vision Motors Pvt. Ltd, 13/82-2, Thirumoolapuram P.O, Thiruvalla, Pathanamthitta-689115",THIRUVALLA,salesmgrktm@visionhonda.com,9747212260,NA, SMS Address
DD055A1,Capital Honda ,Showroom,12.95411,80.21172,NA,Aadit Auto Company Pvt.Ltd.,"Plot No - 13, Mailai Balaji Nagar,  Velachery Main Road, Pallikarani, Chennai - 600100",CHENNAI,sales.velachery@capitalhonda.in,"9940639232, 9940166611",NA, SMS Address
DD041A1,Highway Honda ,Showroom,20.2448,85.8402,NA,Aditya Car Automotive Pvt. Ltd.,"PLOT NO: 191, 204, 205 & 206, MAA GOURI COMPLEX, LEWIS ROAD, BHUBANESWAR-751014(Showroom).",BHUBANESWAR,lewisroad@highwayhonda.com,7873999881,NA, SMS Address
DD304,Aan Honda ,Showroom & Workshop,22.27732,70.77648,NA,Aan Motors Pvt. Ltd.,"Aan Motors Pvt. Ltd.,
Near Reliance Mall, Opp. HP Petrol Pump, Nr. Nana Mava Circle, 
150 feet Ring Road, Rajkot-360005",RAJKOT,salesmgr@aanhonda.comservicemgr@aanhonda.com,"8511135111, 02812330033",NA, SMS Address
DD305,Shubh Honda ,Showroom,22.35767,82.70605,NA,KARANCITY AUTOMOBILES PRIVATE LIMITED,"Plot No. 99, Near Indian Coffee House, Transport Nagar, Korba, Pin No. 495677 (C.G.) ",KORBA,NA,8657589096,NA, SMS Address
DD303,Premier Honda ,Showroom & Workshop,9.636562,76.54425,NA,Crystal Cars Pvt. Ltd.,"Crystal Cars pvt ltd, Adichira, M.C Road, Thellakam Post, Kottayam -686016 ",KOTTAYAM,sales@premierhonda.in service@premierhonda.in,"9207722522, 9207722535",NA, SMS Address
DD302,Global Honda ,Showroom & Workshop,13.9127,75.57368,NA,M/s.SREE JYOTHILAKSHMI CARS PVT LTD,PLOT NO.1800 SHIVAMOGGA - BHADRAVATHI BYPASS ROAD URAGADUR SHIVAMOGGA 577203,SHIMOGA,salesmanager@globalhonda.com servicemanager@globalhonda.com,"08182298133, 08182298155, 7349257681, 08182298166, 7349257682",NA, SMS Address
DD005E1,Abhikaran Honda ,Extended Showroom,22.95927,76.04338,NA,PATWA CITY AUTOMOBILES PVT LTD,"Abhikaran Honda,8,Ram Nagar,Ward No.36,Main A.B.Road,Dewas   (M.P.)  -455001",DEWAS,smsalesindore@abhikaranhonda.com,7314002200,NA, SMS Address
DD062E1,Dream Honda ,Extended Showroom & Workshop,21.11904,73.08964,NA,Jivan Jyot Motors Pvt. Ltd.,"Opp. TAN GIDC Road, Bardoli-Kadodara Highway Road, Bardoli - 394601",BARDOLI,sales.bardoli@dreamhonda.inservice.bardoli@dreamhonda.in,"9328866663, 9328866663",NA, SMS Address
DD306,Dream Honda ,Showroom & Workshop,20.93005,72.98331,NA,Jivan Jyot Motors Pvt. Ltd.,"NH - 8, Ganesh-Sisodara Road, Navsari, Gujarat - 396463",NAVSARI,sales.navsari@dreamhonda.inservice.navsari@dreamhonda.in,8657588767,NA, SMS Address
DD192E1,Gopinathji Honda ,Extended Showroom,21.61407,73.00766,NA,"Shree Gopinathji Cars Pvt Ltd,","GF- 57,58,59,60, Hexone Archade, Near Jayaben Mody Hospital, Valia Road, Ankleshwar, District. Bharuch",ANKLESHWAR,salesankleshwar@gopinathjihonda.in,8758765656,NA, SMS Address
DD055E1,Capital Honda ,Extended Showroom,11.89459,79.80276,NA,Aadit Auto Company Pvt. Ltd,"3/A,Imperial road,Pacchan kuppam, Cuddalore -607005.",CUDDALORE,charlesmichael.j@capitalhonda.in,"9789888040, 9003211411",NA, SMS Address
DD199E1,Star Honda ,Showroom & Workshop,23.29684,81.38071,NA,STAR AUTOMOBILE LTD,"STAR AUTOMOBILES LTD , KAMLA NAGAR , BURHAR ROAD  , SAHDOL, PIN CODE 484002",SHAHDOL,starhondasahdol@gmail.com,"8889998243, 8889998243",NA, SMS Address
DD199E2,Star Honda ,Extended Showroom & Workshop,24.54357,81.27338,NA,STAR AUTOMOBILE LTD,"STAR HONDA , (STAR AUTOMOBILES LTD) , PADRA ,NH - 7 , STANA ROAD ,  REWA  ,(M.P.), PIN CODE -  486001",REWA,starhondarewa@gmail.com,8889998236,NA, SMS Address
DD181E1,Southern Honda ,Extended Showroom,8.824312,78.13039,NA,ANTON MOTOCORP PVT LTD,"4E/30C, Ettayapuram Road, Opp. Swamy Petrol Bulk, Tuticorin - 628002,",TUTICORIN,salesmgr@southernhonda.in,7708065545,NA, SMS Address
DD082E1,Platinum Honda ,Extended Showroom & Workshop,29.38129,78.14008,NA,SJS Auto Services Pvt. Ltd,"Nazibabad Road, Near Central Ware House , Distt. Bijnor (U.P) Pin â€“ 246701",BIJNOR,mail@platinumhonda.com,"9756799966, 9756799902",NA, SMS Address
DD066E1,Emerald Honda ,Extended Showroom & Workshop,22.72124,71.66998,NA,Emerald Cars Pvt Ltd,"Plot No 3/A Wadhwan Industrial Estate, GIDC, Opp Mangal Bhuvan, Wadhwan Road, Surendranagar - - 363002",SURENDRANAGAR,sales.surendranagar@emeraldhonda.com,"9714500084, 9714501009",NA, SMS Address
DD310,Elite Honda ,Showroom & Workshop,16.56733,81.48977,NA,M/S Sri Dhanalakshmi Automobiles pvt ltd,"#6-204, Mahadevapatnam Cross, Peda Amiram, Kalla Md, Bhimavaram-534204",BHIMAVARAM,salesbvrm@elitehonda.co.in,"7799900553, 7799900724",NA, SMS Address
DD167E1,Hans Honda ,Extended Showroom,25.75141,82.7026,NA,M/S I.P. Complex pvt. Ltd.,"Sipah Chowraha,Azamgarh Road (OPP. Gahna Kothi),Jaunpur",JAUNPUR,bmjnp@hanshonda.com,7704002651,NA, SMS Address
DD099E1,Olympia Honda ,Extended Showroom,13.13722,79.91355,NA,M/S Khivraj Vahan Pvt Ltd,"M/S Khivraj Vahan Pvt Ltd plot no 397, TNHB, Chennai â€“ Tirutani Highway, Tiruvaliur, Tamil Nadu 602001",TIRUVALLUR,enquiry@olympiahonda.co.in,7299888668,NA, SMS Address
DD119E1,Green Honda ,Extended Showroom,16.75309,78.03036,NA,M/s kapil motors pvt ltd,"No 5/84/3,6/A & 6B, 155/1 & 155/2, Yenugonda, Mahabubnagar - 509001",MAHABUBNAGAR,branchhead_mahabubnagar@greenhonda.co.in,7331151560,NA, SMS Address
DD307,Cherish Honda ,Showroom,28.71973,77.10955,NA,Ganganagar Vehicles Pvt. Ltd.,"G-1, Jackson Crown Heights, Twin District Centre, Rohini, Sector - 10, Delhi - 110 085",DELHI,sales@cherishhonda.com,8255008008,NA, SMS Address
DD309,Eternal Honda ,Showroom & Workshop,28.4069,79.3667,NA,VRANDAVANESHWREE AUTOMOTIVE PVT LTD,RAMPUR ROAD ADJACENT JAUHARPUR RAILWAY CROSSING C.B. GANJ BAREILLY UTTAR PRADESH 243502,BAREILLY,sales@eternalhonda.com,"7457000505, 7457000510, 05812560777, 05812560666, 05812560888",NA, SMS Address
DD016E1,Pinkcity Honda ,Extended Showroom,26.89898,76.31357,NA,Pinkcity Motors Pvt. Ltd.,"Near Sheikh Bagh-E-Iram, Jaipur - Agra Bye Pass Road, Tiraha, Dausa - 303303, Rajasthan",DAUSA,sales@pinkcityhonda.com,9887575899,NA, SMS Address
DD311,JOHNS HONDA ,Showroom & workshop-3s,10.54975,76.21234,NA,JOHNS AUTOMOTIVES PVT LTD,"1/204-01,NEAR VIYYUR CHURCH,SHORNUR ROAD,VIYYUR,THRISSUR.PIN:680010.",THRISSUR,salesinfo@johnshondacars.in serviceinfo@johnshondacars.in,"04872700700, 9946511111, 04872700707",NA, SMS Address
DD164E1,Apco Honda ,Extended Showroom,11.59833,75.59384,NA,Apco Honda,"Koroal building, nuts street vadakara kerala 673104",VATAKARA,NA,8111888394,NA, SMS Address
DD236E1,Apco Honda ,Extended Showroom,10.97516,76.21654,NA,Apco Honda,"rayans building building no 697/1,2&3, perinthalmanna Malapuram",PERINTHALMANNA,NA,8111888466,NA, SMS Address
DD138E1,Muthoot Honda ,Extended Showroom,8.996092,76.78471,NA,Muthoot Honda,"KP VII/822, 823 & 824, Gilgal building, Royal nagar,pulamon, Kottarkara, kerala",KOTTARAKKARA,NA,8657589242,NA, SMS Address
DD242E1,Balaji Honda ,Extended Showroom,12.87379,79.72504,NA,Balaji Honda,"near Meenakshi Medical College, chetiarpettai, Enathur post, kancheepuram, Tamilnadu -631561",KANCHIPURAM,NA,8657589186,NA, SMS Address
DD312,Galaxy Honda ,Showroom & workshop-3s,31.34071,75.60831,NA,M/s GS Autoworld pvt ltd.,"M/s GS Autoworld pvt ltd. Amritsar Bypass Road, Near Guru Gobind Singh Avenue, Jalandhar City â€“ 144001 Punjab",JALANDHAR,sales@galaxyhonda.in,9781097810,NA, SMS Address
DD210E1,Central Honda ,Extended Showroom,20.84094,85.1507,NA,M/s City Motors pvt ltd.,"M/s City Motors pvt ltd. Plot no 2899, pS- Nalconagar, PO- Kulad, NH â€“ 55, Main Road, Angul 759145, Odisha",ANGUL,NA,8599005896,NA, SMS Address
DD041E1,Highway Honda ,Extended Showroom,20.9107,86.2298,NA,M/S Aditya Car Automotives pvt ltd.,"PLOT NO:209, NH-5, MIRZAPUR, PANIKOILI, JAJPUR-755043(Showroom),PLOT NO:209, NH-5, MIRZAPUR, PANIKOILI, JAJPUR-755043(WorkShop).",JAJPUR,jajpursales@highwayhonda.com jajpurservice@highwayhonda.com,"7873999614, 7873999226, 7873999951",NA, SMS Address
DD105E1,Shubh Honda ,Extended Showroom,23.13873,83.16363,NA,M/s karan City Automobiles pvt. Ltd.,"M/s karan City Automobiles pvt. Ltd. Adjoining Cement Pipe Factory Dhanshree & Company, Vill. - Bhagwanpur, Manedragarh Road, Ambikapur, Dist. - Surguja, Chhatisgarh â€“ 497001",AMBIKAPUR,NA,NA,NA, SMS Address
DD270E1,AVANTIKA HONDA ,Extended Showroom,23.34912,75.05141,NA,M/S NAHATA MOTORS PVT LTD,"M/s Nahata Motors pvt ltd. 31/4, Jaora Road, Near Pehelwan Baba Ki Dargah, Ratlam â€“ 457001 (m.p.)",RATLAM,salesratlam@avantikahonda.com,"7400583000, 7400587000",NA, SMS Address
DD298E1,Perfect Honda ,Extended Showroom,10.10423,76.4837,NA,M/s Pothen Vehicles & services pvt ltd,"M/s Pothen Vehicles & services pvt ltd. Door No 15/272C, SY No. - 69/1-3, Perumbavoor Village, Dist. - Cochin, Kerala",PERUMBAVOOR,NA,NA,NA, SMS Address
DD237A,Cartec Honda ,Showroom,22.99513,72.60379,NA,CARTEC MOTORS PVT LTD,"M/s cartec motors pvt ltd. Opp. AMCO Bank, Jawahar Chowk Cross Road, Maninagar, Ahmedabad â€“ 380008",AHMEDABAD,sales2@cartechonda.com,7573008910,NA, SMS Address
DD155B,Arya Honda ,Workshop,19.07202,72.8671,NA,Shaman Cars (I) Pvt Ltd,"Arya Honda, Shaman Cars (I) Pvt Ltd, Bharti Workshop, 167, Vidyanagri Marg, Kalina, Mumbai- 400 098.",MUMBAI,crmhondaservice.kalina@aryahonda.com,2261339999,NA, SMS Address
DD154B,Arya Honda ,Workshop,18.97832,72.84892,NA,Arya Honda,"Arya Honda, Nanavathi Premises, Opp. Sewri Police Station, reay Road, Mumbai-400 010",MUMBAI,crmhondaservice.kalina@aryahonda.com,2261339999,NA, SMS Address
DD043B,Dakshin Honda ,Workshop,12.97115,77.60801,NA,Dakshin Honda,"#31,MAGRATH ROAD BEHIND GARUDA MALL NEXT TO GRAND MAGRATH HOTEL .BANGALORE-560025",BANGALORE,service2@dakshinhonda.com,"9845508129	",NA, SMS Address
DD344#,Landmark Honda ,Workshop,23.02647,72.47896,NA,LANDMARK HONDA,"Nr. BRTS Approach, BRTS Bus Stop, Bopal Ambali Road, Ahmedabad - 380058",AHMEDABAD,servicebopal@landmarkindia.net,7966046000,NA, SMS Address
DD011B,Sundaram Honda ,Workshop,13.05419,80.1415,NA,SUNDARAM HONDA,"116/4, Mahalakshmi nagar extension. Noombal Mani road-thiruverkadu Chennai- tamil Nadu-600077",CHENNAI,shbs.noombal@sundarammotors.com,"26493021, 26493039, 26493042",NA, SMS Address
DD084C,Magnum Honda ,Workshop,12.89947,77.54157,NA,MAGNUM HONDA,"Sy. No 62, 1st Cross, Balaji Layout, Gubbalala Main Road, Near Subramanyapura Post Office, Subramanya Pura Post, Uttarahalli Hobli, Bangalore - 560061",BANGALORE,shbs.noombal@sundarammotors.com,"26493021, 26493039, 26493042",NA, SMS Address
DD070C,Pride Honda ,Workshop,17.44585,78.3851,NA,MAGNUM HONDA,"Sy. No - 345, Pupallaguda village, Rajendra nagar mandal, Gachibowli, Nanakramguda, Kokapet Service Road, Future Kids school line,Hyderabad 500089",HYDERABAD,wm.gcb@pridehonda.com,"8367017474, 9133125500, 9505399966",NA, SMS Address
DD283B,Vision Honda ,Workshop,10.02158,76.35389,NA,VISION HONDA,"Athani,Kakkanad,Cochin-682030",KOCHI (COCHIN),servicemgrekmbs@visionhonda.com,"9567864794, 04842975818",NA, SMS Address
DD314,Supreme Honda ,showroom & workshop,25.74991,87.46537,NA,Pratima Motors Private Limited,"Ward No. 8, NH-31, At & Post Maranga, Purnia, Bihar, 854301",PURNIA,care@supremehonda.com service@supremehonda.com,"9570222244, 9570222211",NA, SMS Address
DD174E1,MANCHESTER HONDA ,Extended Showroom & Workshop,10.67861,77.00389,NA,RAMANI AUTOMOBILE PRIVATE LIMITED,"Survey No: 129/A-1, Sangampalayam Village, Coimbatore- Pollachi Main Road ,Pollachi Town",POLLACHI,sales.pollachi@manchesterhonda.co.inservice.pollachi@manchesterhonda.co.in,9047861155,NA, SMS Address
DD133A,Vision Honda ,Workshop,10.52556,76.24306,NA,Vision Motors Pvt Ltd,"VISION MOTORS PVT LTD, KUNNATHUMKARA, OLLUKKARA P O, PARAVATTANI, THRISSUR - 680655",THRISSUR,servicemgrtsr@visionhonda.com servicetsr@visionhonda.com,"9656945555, 9526051162, 04872972909",NA, SMS Address
DD317,Grand Honda ,Showroom & Workshop,12.71205,77.89162,NA,M/s.ADEN PATHI AUTOMOBILE PVT LTD,"#715/3B, PERANDAPALLI VILLAGE & POST, HOSUR TALUK, KRISHNAGIRI DISTRICT - 635109, TAMILNADU INDIA",HOSUR,salesmanager@grandhonda.inservicemanager@grandhonda.in,"04344311211, 8940086611, 04344311221, 8940086633",NA, SMS Address
DD318,ERAI HONDA ,Showroom & Workshop,19.97778,79.28194,NA,KSR Motors Pvt Ltd,"Erai Honda, Survey Number 59B, Besides MDR Mall, Near ND Hotel, Bapatnagar, Nagpur Road, Chandrapur, Maharashtra 442401",CHANDRAPUR,sales@eraihonda.comservice@eraihonda.com,"7447411117, 9112236881",NA, SMS Address
DD320,Lotus Honda ,Showroom & Workshop,25.36079,74.62959,NA,(A UNIT OF PALASH CAR PVT LTD),"Plot No. 79-81, opp, Mahindra Showroom Ajmer Road Bhilwara ,311001 (Raj)ph..01482297581,,297582",BHILWARA,gm@lotushonda.comservicemanager@lotushonda.com,"9116631761, 9116631762, 9116631770, 9116631768",NA, SMS Address
DD062A,Dream Honda ,Showroom,21.23926,72.91164,NA,Jivan Jyot Motors Pvt. Ltd.,"""Dream Honda, Ground Floor, Skyview Business Horizon, Survey No â€“ 19/20, Block No â€“ 21/B,  Surat â€“ Kamrej Highway, A&P â€“ Sarthana, Surat, Gujarat - 395006""",SURAT,sales.varachha@dreamhonda.in,"02616116600, 9737566665",NA, SMS Address
DD194B,Shree Honda ,Workshop,22.58733,88.50109,NA,Shree Cars Private Limited,"Workshop: KADAMPUKUR - JHALGACHHI ROAD, KALIKAPUR, P.O. KASHINATHPUR, P.S. RAJARHAT, DIST: 24 PGS(N), Pin-700135 (NEAR DELHI PUBLIC SCHOOL, MEGHACITY), City: Kolkata, State: West Bengal",KOLKATA,enquiry@shreehonda.com,"913366777777, 8335045000, 913366777776",NA, SMS Address
DD121C,Eastern Honda ,Workshop,22.53828,88.38271,NA,B.D. Automobiles Private Limited,"33 & 41A, Topsia Road South, Kolkata - 700046. West Bengal. ",KOLKATA,agm.sales@easternhonda.in,"03366186618, 9903599035, 9007890078, 03366036603",NA, SMS Address
DD278E1,Impression Honda ,Extended Showroom,27.3106,88.5976,NA,IMPRESSION MOTORS PVT LTD.,"Land mart Building,Near Entel Motors Pvt. Ltd, 6th Mile Tadong Gangtok, East Sikkim- 737102",GANGTOK,salesgtk@impressionmotors.in,"8170005319, 8170005303, 8170005303",NA, SMS Address
DD156E1,Green Honda ,Extended Showroom & Workshop,17.24611,80.17917,NA,KAPIL MOTORS PRIVATE LIMITED,"Plot No 11, Bypass Road, Rotary Nagar, Khammam - 507002",KHAMMAM,branchhead_khammam@greenhonda.co.in,7680888914,NA, SMS Address
DD011A,Sundaram Honda ,Showroom,13.02852,80.23565,NA,T.V. SUNDRAM IYENGAR & SONS PVT LTD.,"Plot No 4, New Door No 782, Opp. To YMCA Gate, Anna Salai, Nandanam, Chennai. TAMILNADU. Pin code : 600 035.",CHENNAI,honsalmgr_ndm@sundarammotors.com,"04424345020, 04424345010",NA, SMS Address
DD168E1,Premium Honda ,Showroom & Workshop,14.4692,78.84779,NA,PM CARS PVT LTD,"36/323-F1, Old Bypass Circle, Near Aditya Kalayana Mandapam, Chinna Chowk Kadapa 516003",KADAPA,gm@premiumhonda.com,"7093909125, 9866065777",NA, SMS Address
DD178E1,Girnar Honda ,Showroom & Workshop,20.68872,76.93611,NA,Girnar Autoventures Pvt. Ltd.,"Survey No. 60/4, Next to Bharatiya Compund Mouza: Ridhora, Balapur, NH6, Akola Maharashtra 444003",AKOLA,sales@girnarhonda.comservice@girnarhonda.com,"7767816172, 9373411777",NA, SMS Address
DD095B,Solitaire Honda ,Showroom,19.14146,72.8322,NA,Krish Cars Pvt Ltd.,"Gala No G 8 Shalimar Morya Park Premises Co op Society Ltd B 2 CTS No 617, New Link Road,  Oshiwara Andheri West Mumbai 400053",MUMBAI,crm.andheri@solitairehonda.com servicemanager.andheri@solitairehonda.com,"02261516151, 02261777777",NA, SMS Address
DD323,Rushabh Honda ,Showroom & Workshop,19.9882,73.7854,NA,Krrish Autowheels Pvt. Ltd.,"294,MUMBAI -AGRA ROAD , PATHARDI PHATA , NASHIK -422010- MAHARASHTRA",NASHIK,salesmgr@rushabhhonda.com service@rushabhhonda.com,"02536643333, 02536643336",NA, SMS Address
DD324,North East Honda ,Showroom & Workshop,26.6809,92.76302,NA,M/s. Fareast Auto Pvt Ltd,"Haleswar, Dekargaon, Dist: Sonitpur, PIN Code: 784501, State: Assam",TEZPUR,sales.nehonda@gmail.com service.nehonda@gmail.com,"8399990869, 8399995795, 8399988730",NA, SMS Address
DD325,Vivan Honda ,Showroom & Workshop,26.41944,74.67209,NA,M/s. Goyal Autohouse (India) Pvt Ltd.,"Plot No. 35 - 36, Near Nagar Nigam Fire Station, NH-8, Sendriya, Ajmer ",AJMER,sales@vivanhonda.com service@vivanhonda.com,"7414012350, 7414012355, 7414012370, 7414012374",NA, SMS Address
DD327,Aastha Honda ,Showroom,25.6223,85.0439,NA,Kumar Distributors Pvt. Ltd,"Aastha Honda (A Unit Of Kumar Distributors Pvt. Ltd.), Bailey Road, Near Saguna More(Opp. DAV School), Patna- 801503 (Bihar)",PATNA,sales@aasthahonda.comservice@aasthahonda.com,"6209014503, 6209014504, 6209015812",NA, SMS Address
DD328,Victory Honda ,Showroom,23.39257,85.31408,NA,Manjula Enterprises Private Limited.,"Plot No.56A ,PISKA MORE ,RATU ROAD, Ranchi - 834005, Jharkhand",RANCHI,sales@victoryhonda.co.in service@victoryhonda.co.in,"7781018105, 9297880136 ",NA, SMS Address
DD326,Cherish Honda ,Showroom & Workshop,28.47001,77.05325,NA,GBM Vahaan Pvt. Ltd.,"Plot No. 66, IDC, Mehrauli Road, Gurgaon, 122001",GURGAON,sales@gbmcherishhonda.com service@gbmcherishhonda.com,"7557434343, 7557323232",NA, SMS Address
DD072A,Hillview Honda ,Showroom,32.74758,74.86454,NA,Trehan Automotive Pvt. Ltd.,"BC Road, Amphala, Jammu - 180015",JAMMU,sales@hillviewhonda.com,"01912565091, 9796299920",NA, SMS Address
DD177A1,Perfect Honda ,SHOWROOM,8.474864,76.97513,NA,POTHEN VEHICLES AND SERVICES PVT LTD.,"Building no. 52/524(1) & 52/524(2), Opp govt. Womens Polytechnic, Niramankara, Kaimanam PO, Trivandrum - 695040",THIRUVANANTHAPURAM(TRIVANDRUM),sales1skaramana@perfecthonda.in," 8111889080, 8111870123",NA, SMS Address
DD287E1,Palace Honda ,EXTENDED SHOWROOM,9.244765,76.54113,NA,Palace Automobiles Pvt. Ltd.,"Building no. 82(1), Ward no. 14, Near Buddha Railway Station Road, Mavelikara, Alapuzzha - 690101",MAVELIKARA,salesmvk@palacehonda.inservicemvk@palacehonda.in,"9539012045, 9539012045, 9207733762",NA, SMS Address
DD329,Shuhul Honda ,Showroom & Workshop,34.03708,74.89333,NA,Shuhul Autohub Pvt. Ltd.,"NH-44 Sempora, Pantha Chowk, Bypass Srinagar, Pin Code - 191101, Kashmir, J&K.",SRINAGAR,sales@shuhulhonda.com sqm@shuhulhonda.com service@shuhulhonda.com crm@shuhulhonda.com,"919797776861,01933222914, 01933222912, 9797773501",NA, SMS Address
DD304E1,Aan Honda ,Extended Showroom,22.74891,70.79382,NA,Aan Motors Pvt Ltd ,"Aan Motors Pvt Ltd  Morbi Virapar,Before virat hotel near Bani vadi Morbi, Gujarat. pincode-363641",RAJKOT,sales@aanhonda.com service@aanhonda.com,"7211153452, 7211153467, 8511135111, 7211153366, 7211153500",NA, SMS Address
DD327*,Aastha Honda ,Workshop,25.5818,85.1714,NA,Kumar Distributors Pvt. Ltd ,"Aastha Honda (A Unit Of Kumar Distributors Pvt. Ltd.),Sidharta Nagar,RPS More, New Bailey Road,Near RPS College, Patna- 800503 (Bihar)",PATNA,sales@aasthahonda.com service@aasthahonda.com,"6209015812, 6209015813, 6209014503",NA, SMS Address
DD327#,Aastha Honda ,Workshop,25.57341,85.18874,NA,Kumar Distributors Pvt. Ltd,"Aastha Honda (A Unit Of Kumar Distributors Pvt. Ltd.),Nandlal Chapra, Kacchuara Road, Near Grand Celebration Hotel, NH-30, New Bye-Pass Road, Patna- 800020 (Bihar)",PATNA,sales@aasthahonda.com service@aasthahonda.com,"6209014503, 6209014504, 6209015813",NA, SMS Address
DD328#,Victory Honda ,Workshop,23.3699,85.32528,NA,Manjula Enterprises Private Limited,"Plote No.6P ,KOKAR INDUSTRIAL AREA ,KOKAR, Ranchi - 834001, Jharkhand",RANCHI,sales@victoryhonda.co.in service@victoryhonda.co.in,"9818834421, 6207665570, 9431583027",NA, SMS Address
DD332,Prakash Honda ,Showroom & Workshop,32.06484,76.18012,NA,Shagun Automobiles Pvt. Ltd,"GT Road, Kachhiari, Tehsil nad Distt Kangra-176001",KANGRA,sm.kangra@prakashhonda.com service.kangra@prakashhonda.com,"9875954001, 9875954011 ",NA, SMS Address
DD332E1,Prakash Honda ,Showroom & Workshop,31.47591,76.25146,NA,Shagun Automobiles Pvt. Ltd,"Amb Road, Tehsil and Distt Una -174303",UNA,sales.una@prakashhonda.com service.una@prakashhonda.com,"9875954017, 9875954010 ",NA, SMS Address
DD330,Greenway Honda ,Showroom,19.07417,74.7275,NA,Cornerstone Cars Pvt. Ltd.,"C/O: Perfect Tyres, Kinetic Chowk , Pune Noad , Ahmednagar -414001.",AHMEDNAGAR,salesmanager@cornerstonecars.in servicemanager@cornerstonecars.in,8530020555,NA, SMS Address
DD334,Prime Honda ,Showroom & Workshop,28.6766,77.31691,NA,CAPITAL CARS PRIVATE LIMITED,"19A & 19C, Main G.T. Road, Dilshad Garden Industrial Area, Delhi - 110095",DELHI,navendu.mishra@primehonda.com rakesh.gupta@primehonda.com,"9717491157, 9717491139",NA, SMS Address
DD082E2,Platinum Honda ,Extended Showroom & Workshop,29.47139,77.74446,NA,SJS Auto Service Pvt. Ltd. ,"Bhopa Road , Muzaffernagar (U.P)",MUZAFFARNAGAR,mail@platinumhonda.com service@platinumhonda.com,"9756799902, 9756799901",NA, SMS Address
DD331,Coastal Honda ,Showroom,15.61328,73.82775,NA,CACULO CARS PVT LTD,"Coastal Honda Guirim, House No.417/2, Guirim NH-17 Panjim- Mapusa Road, Bardez, Goa- 403519",GOA,sales@coastalhonda.net service@coastalhonda.net,"8411972017, 7767815751, 9764445253",NA, SMS Address
DD331A,Coastal Honda ,Workshop,15.61328,73.82775,NA,CACULO CARS PVT LTD,"Coastal Honda  Service Centre, Plot No. 3A, Thivim Industrial Estate, Karaswada, Bardez, Goa-403517",GOA,sales@coastalhonda.net service@coastalhonda.net,"8411972017, 7767815751, 9764445253",NA, SMS Address
DD333,Shaurya Honda ,Showroom & Workshop,23.09499,70.12794,NA,SHAURYA AUTOLINK PVT LTD,"RS NO 26/5, ANJAR GANDHIDHAM HIGHWAY, NR GALPADAR VILLAGE, GANDHIDHAM - 370201 - GUJARAT",GANDHIDHAM,sales@shauryahonda.com service@shauryahonda.com,"9879728177, 9825222377, 9998959359",NA, SMS Address
DD232E1,Kaizen Honda ,Showroom,19.17247,77.32243,NA,KAIZEN AUTOCARS PVT LTD,"Shops No.1 to 4 G.R. Tapdiya Complex, Hingoli Naka Road, Gandhi Nagar Maharana Pratap Chowk, Nanded.431602 . Maharashtra.",NANDED,carsalesnanded@kaizenhonda.com carservicenanded@kaizenhonda.com,"8669993358, 7720090653, 8669993360 , 7720090650",NA, SMS Address
DD232E1#,Kaizen Honda ,Workshop,19.20038,77.34329,NA,KAIZEN AUTOCARS PVT LTD,"Gat No.235, at Village Pimpalgaon Nanded Akola Road Tal. Ardhapur dist. Nanded-431607. Maharashtra.",NANDED,carsalesnanded@kaizenhonda.com carservicenanded@kaizenhonda.com,"8669993358, 7720090653, 8669993360 , 7720090650",NA, SMS Address
DD007E1,Peninsular Honda ,Extended Outlet Showroom & Workshop,9.907,76.721,NA,PATEL CARS PVT LTD.,"PATEL CARS PVTLTD, PENINSULAR HONDA  MANGATTUKAVALA BY PASS, NEAR UTHRAM RESIDENCY ,THODUPUZHA , KERALA 685584",THODUPUZHA,sales@peninsularhonda.com service@peninsularhonda.com," 9895712555, 9037020088",NA, SMS Address
DD303E1,Premier Honda ,Extended Outlet Showroom & Workshop,9.689481,76.69128,NA,CRYSTAL CARS PVT LTD,"MEENACHIL P O KUTTILLAM , P P ROAD, KOTTAYAM DIST,KERALA, PIN - 686577",KOTTAYAM,sales@premierhonda.in service@premierhonda.in," 9207722522, 9526991155",NA, SMS Address
DD302E1,Global Honda ,Extended Outlet Showroom,14.47016,75.89896,NA,Sree Jyothilakshmi Cars Pvt. Ltd,"Door No.163/1, Yeragunte, P.B. Road, Davangere-577004, Next to Vani Honda Showroom, Opp. Sai International Hotel.",DAVANGERE,saleshead@globalhonda.com salesmanager@globalhonda.com director@globalhonda.com,"08182298133, 7349257699",NA, SMS Address
DD304E2,Aan Honda ,Showroom & Workshop,21.55305,70.46407,NA,Aan Motors Pvt Ltd.,"Aan Motors Pvt Ltd  Junagadh Plot No. 80 & 93, Survey No. 423/3,Beside Star Marble,GIDC - 1, Dolatpara, Junagadh, Gujarat. pincode-362037",JUNAGADH,sales@aanhonda.com service@annhonda.com,"8511135111, 7211153452, 7211153366,  7211153500",NA, SMS Address
DD083E1,Splendid Honda ,Showroom,23.86075,78.79958,NA,Splendid Motors Pvt. Ltd. ,"Besides Central Hero, Golden Gym Building, Makronia, Sagar 470004",MAKRONIA,sales.sagar@splendidhonda.com,9109969822,NA, SMS Address
DD238E1,Capital Honda ,Extended Showroom & Workshop,10.98142,79.38288,NA,AADIT AUTO COMPANY PVT LTD,"NO 20 ASOOR BY PASS ROAD (NH 45 C), KUMBAKONAM ,612002",KUMBAKONAM,sm.thanjavur@capitalhonda.in srm.thanjavur@capitalhonda.in,"9840243745, 9840061793",NA, SMS Address
DD127E1,Capital Honda ,Extended Showroom & Workshop,10.36185,78.80622,NA,AADIT AUTO COMPANY PVT LTD,"No:102, Thirumayam Main Road,Malaiyeedu,Pudukottai -622003",PUDUKKOTTAI,sm.trichy@capitalhonda.in srm.trichy@capitalhonda.in,"9500005863, 9940056644",NA, SMS Address
DD063E1,Deccan Honda ,Showroom & Workshop,18.73644,73.85792,NA,Bafna Auto Cars (I) Pvt. Ltd.,"SR.No. 1721, Near Bharat Petrol Pump Pune, Nasik Highway, Chakan, Pune - 410501.",PUNE,saleschakan@deccanhonda.com servicepcmc@deccanhonda.com,"2040772348, 2040772300",NA, SMS Address
DD337,Garve Honda ,Showroom,18.53958,73.85085,NA,Garve Motor Works Pvt Ltd,"Survey No 15A, Final Plot no 30, Bhale Estate Appartment, CTS no 14E, Mauje, Shivaji Nagar Pune 411003",PUNE,sales@garvehonda.com service@garvehonda.com,"9545512300, 8956000419",NA, SMS Address
DD228A,Narbheram Honda ,Showroom,22.80748,86.20263,NA,Narbheram Motors Pvt. Ltd.,"H.No.140, Sakchi New Planning Area, P.O.Sakchi, Besides Agrasen Bhawan, Jamshedpur-831001, East Singhbhum",JAMSHEDPUR,gracehonda.gmsales@narbheram.com gracehonda.parts@narbheram.com gracehonda.sm@narbheram.com gracehonda.sqm@narbheram.com gracehonda.service@narbheram.com,"9204069853, 9297800090, 9031011042, 9031011038, 9798303148, 9204069852, 9204069844",NA, SMS Address
DD049E1,Divine Honda ,Extended Showroom & Workshop,29.94069,78.14006,NA,DIVINE AUTOMOTIVES PVT LTD. ,"OLD INDUSTRAIL AREA BILKESHWAR ROAD NEAR HANUMAN MANDIR, HARIDWAR PINCODE-249401",HARIDWAR,saleshrd@divinehonda.com,9639016132,NA, SMS Address
DD336,Himalayan Honda ,Showroom & Workshop,31.64361,76.947,NA,HIMALAYAN MOTORS PVT.LTD,"VILL.CHAKKAR P.O. GUTKAR TEH BALH CHALAH,  MANDI, HIMACHAL PRADESH - 175021",MANDI,sales@himalayanhonda.com service@himalayanhonda.com,"7876909001, 7876909099",NA, SMS Address
DD335,Rajshree Honda ,Showroom & Workshop,26.01447,83.12522,NA,Prabha wheels Pvt.Ltd,Jagarnath sarai near saidwara market rani ki sarai varanasi road azamgarh UP 276207,AZAMGARH,sales@rajshreehonda.com service@rajshreehonda.com,"7311186364, 7311186350",NA, SMS Address
DD337A,Garve Honda ,Workshop,18.57053,73.83916,NA,Garve Motor Works Pvt Ltd ,"Sr. No. 12/A/1, CTS no. 3244 Bopodi, Pune 411012",PUNE,sales@garvehonda.com service@garvehonda.com,"9545512300, 8956000419",NA, SMS Address
DD268E1,Vision Honda ,Extended Showroom & Workshop,11.64922,76.13805,NA,VISION MOTORS PVT LTD ,"VISION MOTORS PVT LTD,Kakkavayal (PO)Kakkavayal,Kalpetta,Wayanad-673122",KALPETTA,salesmgrclt@visionhonda.com servicemgrclt@visionhonda.com,"8606986720, 8606986718",NA, SMS Address
DD158E1,Pinnacle Honda ,Extended Showroom & Workshop,23.21816,87.8935,NA,Chandrani Enterprises Pvt. Ltd ,"Ullhas More, NH2, Bypass. Near Charnock Hotel. Village Alisha. P.o. Joteram. Purba Burdwan 713101",BARDHAMAN,sales.burdwan@pinnaclehonda.com service.burdwan@pinnaclehonda.com,"7375002788, 7375002788",NA, SMS Address
DD044E1,Pushp Honda ,Extended Outlet Showroom,26.76874,79.03714,NA,Smart Cars Ltd.,"Pukka Bagh,Infront of Bhatia Petrol Pump,Etawah - 206001",ETAWAH,sales@pushphonda.com,7518100184,NA, SMS Address
DD314E1,Supreme Honda ,Extended Outlet Showroom & WorkShop,25.2525,87.04028,NA,M/s Pratima Motors Pvt Ltd.,"Opposite Engineering College,Sabour Road,N.H-80,Bhagalpur-813210",BHAGALPUR,sales.bgp@supremehonda.com service.bgp@supremehonda.com,"7375004966, 7633995235",NA, SMS Address
DD036A,Abhikaran Honda ,Showroom & Workshop,23.20889,77.41861,NA,PATWA CITY AUTOMOBILES PVT. LTD.,"A3, A4, JANKI NAGAR, KOLAR MAIN ROAD, CHUNA BHATTI, BHOPAL -462042",BHOPAL,kolar@abhikaranhonda.com,8719090303,NA, SMS Address
DD236E2,Apco Honda ,Extended Outlet Showroom & Workshop,10.93544,75.90735,NA,Apco Cars Pvt. Ltd.,"Moochikel Bus Stop, Tirur Kadalundi Road, Moochikel, Tirur, Malappuram District, Kerala State - PIN -676109",MALAPURAM,tirur@apcohonda.com tirur@apcohonda.com,"8111888345, 8111888322",NA, SMS Address
DD030E1,Peninsular Honda ,Extended outlet Showroom,8.997222,76.86639,NA,"PENINSULAR HONDA, ATTINGAL","PENINSULAR HONDA, NH MAIN ROAD, CHATHANPARA, THOTTAKKAD P.O, ATTINGAL - 695605",ATTINGAL,tvm.sales@peninsularhonda.com,9895110666,NA, SMS Address
DD084E1,Magnum Honda ,Extended Outlet Showroom & Workshop,34.03617,131.1411,NA,AKSHARA MOTORS PVT LTD,"NO.3803/3061, SRI SHANTINATHA RICE & OIL MILL COMPOUND,SIRA GATE, SIRA TOAD, TUMKUR, KARNATAKA - 572106",TUMKUR,sales.tmk@magnumhonda.com salesmanager.tmk@magnumhonda.com service.tmk@magnumhonda.com parts.tmk@magnumhonda.com ," 9916004127, 9900041071, 08162251760, 08162251764",NA, SMS Address
DD138E2,Muthoot Honda ,Extended Outlet Showroom,9.113118,76.51911,NA,MUTHOOT AUTOMOTIVE INDIA PVT LTD,"Opposite SRV UP SCHOOL, CHANGANKULANGARA, OACHIRA, KARUNAGAPPALLY, PIN-690526",KARUNAGAPPALLY,karunagappalli@muthoothonda.com,"04762692959, 9656700992",NA, SMS Address
DD011E1,Sundaram Honda ,Extended Outlet Showroom,10.955,78.05901,NA,TVS & SONS PVT LTD,"OPPOSITE TO VALLUVAR ARANGAM, NEW MADURAI BY-PASS ROAD, KARUR - 639002.",KARUR,honsalmgr_erd@sundarammotors.com honsermgr_erd@sundarammotors.com,"9789079013, 9384835375",NA, SMS Address
DD184E1,Prashant Honda ,Extended Outlet Showroom & Workshop,25.44695,86.04111,NA,M/s Prashant Automobiles Pvt Ltd,"NH 31 Papraur, Begusarai, Bihar 851210",BEGUSARAI,sales@prashanthonda.com service@prashanthonda.com,"8407001930, 7544008753",NA, SMS Address
DD235A,Maansarovar Honda ,Showroom,13.06148,80.21176,NA,Maansarovar Automobile Pvt. Ltd. ,"NO 145, J.N.Salai, ( 100 Feet Road ), Vadapalani, Arumbakkam Post, Chennai - 600106",CHENNAI,gm@maansarovarhonda.in,9225800700,NA, SMS Address
DD047E1,Riverside Honda ,Extended Outlet Showroom & Workshop,16.99839,73.33588,NA,Rasika Motors Pvt Ltd,"Plot No. A/34, Mirjole MIDC, Ratnagiri, 415639",RATNAGIRI,rtgsales@riversidehonda.in rtgservice@riversidehonda.in,"9922947599, 9922946799",NA, SMS Address
DD242E2,Balaji Honda ,Extended Outlet Showroom & Workshop,12.85736,80.07053,NA,Balaji Auto Care Pvt Ltd,"Balaji Honda (Balaji Auto care Pvt Ltd) No 693, GST Road,  Urapakkam, Chennai - 603210",CHENNAI,sales.cpt@balajihonda.in service.cpt@balajihonda.in,"9043017928, 9043007624, 938401166",NA, SMS Address
DD041A2,Highway Honda ,Showroom,20.34259,85.82123,NA,Aditya Car Automotive Pvt. Ltd.,"PLOT NO-457/1952/2545,Near CEB College , Patia, Bhubaneswar,Dist-Khordha ,Odisha,India,751024",BHUBANESWAR,patiasales@highwayhonda.com service@highwayhonda.com,"7873999425, 7873999601",NA, SMS Address
DD190E1,Express Honda ,Extended Outlet Showroom & Workshop,15.54523,80.05344,NA,LM Automotives Pvt. Ltd.,"S.N NO : 399, Throvagunta Center NH -16 , Ongole Mandal,Prakasam DT, Andhra Pradesh - 523262",PRAKASAM,smong@expresshonda.com serviceong@expresshona.in,"7680909731, 8523070089",NA, SMS Address
DD016A1,Pinkcity Honda ,Showroom,26.90809,75.75259,NA,Pink City Motors Pvt. Ltd.,"KR Plaza, Queens Road, Vaishali Nagar, Jaipur-302021",JAIPUR,salesvaishali@pinkcityhonda.com service@pinkcityhonda.com,9928041293,NA, SMS Address
DD138E3,Muthoot Honda ,Showroom,8.827796,76.88161,NA,Muthoot Honda,"RAK Building,JR Manjil,Nilamel PO,Nilamel,Anjal-691535",KOLLAM,agmsales@muthoothonda.com,"7034991077, 04742434477",NA, SMS Address
DD004E1,Prestige Honda ,Extended Oulet Showroom,30.71323,76.20145,NA,Lally Motors Pvt. Ltd.,"10A, Model Town, Phagwara.Pin - 144632",PHAGWARA,salesjal@lallymotors.net,8968440022,NA, SMS Address
DD131E1,Planet Honda ,Showroom,28.96612,79.4148,NA,Karan Ashok Auto Pvt. Ltd.,Kichha Bypass Road Teenapni Rudrapur Uttarakhand 263153,RUDRAPUR,sales.rudrapur@planethonda.co.in,7500240039,NA, SMS Address
DD325A,Vivan Honda ,Extended Outlet Showroom,26.46977,74.6395,NA,Goyal Authouse (INDIA) Pvt. Ltd.,"260 / 4 Neeti Marg , Jaipur Road , Ajmer 305001 ",AJMER,salesmanager@vivanhonda.com,7414012351,NA, SMS Address
DD231E1,Shubh Honda ,Extended Outlet Showroom & Workshop,21.0987,81.0453,NA,Karancity Automobiles Pvt Ltd,"Beside Mansukhal Petrol Pump,Rajnandgaon,Chattisgarh-491441",RAJNANDGAON,salesmanager.bhilai@shubhhonda.com,7024152827,NA, SMS Address
DD160,Capital Honda ,Showroom,11.89468,79.80283,NA,Aadit Auto Company Pvt.Ltd,"No:43,Cuddalore Main Road,Ariyankuppam,Pondicherry - 605007",PUDUCHERRY,sm.pondy@capitalhonda.in sqm.pondy@capitalhonda.in,"9940313725, 9840076920",NA, SMS Address
DD341,Axon Honda ,Showroom & Workshop,28.52431,77.29161,NA,AXON AUTOMOTIVES PVT. LTD.,"A-27, Mohan Cooperative Industrial Estate, Mathura Road, New Delhi - 110044",DELHI,salesdelhi@axonhonda.com sqmdelhi@axonhonda.com servicedelhi@axonhonda.com crmdelhi@axonhonda.com sparesdelhi@axonhonda.com,"7428496151, 7428499903, 7428499902, 7428499906, 011-40726500",NA, SMS Address
DD350,Dakshin Honda ,Showroom & Workshop,12.936,77.5161,NA,Elite Automobiles Pvt Ltd,"Survey #: 18/1B, 18/1C, 3rd Block Patrapalya Nayandahalli Village Near Rajarajeshwari Nagar ARCH Bangalore - 5600399",BANGALORE,salesmanager.mysrd@dakshinhonda.com,9731265103,NA, SMS Address
DD312E1,Galaxy Honda ,Showroom,31.51996,75.88416,NA,G.S Autoworld Pvt Ltd.,"Near ITI ,Jalandhar Road ,Hoshiarpur-146001",HOSHIARPUR,sales.hsp@galaxyhonda.in sqm@galaxyhonda.in service@galaxyhonda.in crm@galaxyhonda.in,"8558844994, 8558844950, 8558844969, 8558844968, 8558844993, 9781097810",NA, SMS Address
DD029E1,Sundaram Honda ,Extended Outlet Showroom & Workshop,16.69779,81.0696,NA,M/S TV Sundaram Iyyengar Sons Pvt. Ltd. ,"SVY:238,BESIDE QUES&BALLS,NEAR KRANTHI KALYANA VEDIKA,MINI BY PASS ROAD,VATLURU,ELURU-534007",ELURU,honsalmgr_elu@sundarammotors.com,"8886680960, 9652433433",NA, SMS Address
DD003E2,Prestige Honda ,Extended Outlet Showroom & Workshop,30.92229,76.54208,NA,M/s Lally Motors Pvt. LTD.,"VPO Rangilpur, Ropar-CHD Road, Ropar-140108",RUPNAGAR,smropar@lallymotors.net salesropar@lallymotors.net crm@lallymotors.net,"8727872848, 01881-501777, 9779166006, 9878797788, 8264429679, 9878797788",NA, SMS Address
DD351,Artha Honda ,Showroom & Workshop,12.87773,74.84904,NA,Arrta Motors Private Limited ,"Artha Honda, United Towers, Kadri Road, Mangalore - 575003 ",MANGALORE,spares@arthahonda.comsales@arthahonda.comcrmsales@arthahonda.comgmservice@arthahonda.comservice@arthahonda.com,"9606965268, +91-824-40100000, 9606965270, 9606965275, 9606965260, 9606965267",NA, SMS Address
DD257A,Tristar Honda ,Workshop,26.85289,75.82957,NA,PL CARS PVT.LTD.,"PLOT NO.28,AB,NEAR APEX HOSPITAL,MALVIYA INDUSTRIAL AREA, MALVIYA NAGAR, JAIPUR, RAJ. 302017",JAIPUR,service@tristarhonda.com crm@tristarhonda.com,"9116040053, 9116040051",NA, SMS Address
DD354,Himalayan Honda ,Showroom & Workshop,31.09545,77.31699,NA,HIMALAYAN MOTORS PVT. LTD.,Kanlog Bye Pass Road Khalini Shimla (H.P) 171001,SHIMLA,partsshimla@himalayanhonda.com salesshimla@himalayanhonda.com crmshimla@himalayanhonda.com serviceshimla@himalayanhonda.com,"88947-17700, 88947-17703, 88947-17702, 0177-2674900, 82198-16785",NA, SMS Address
DD355,Himalayan Honda ,Showroom & Workshop,30.8954,77.0557,NA,HIMALAYAN MOTORS PVT LTD.,"MAUZA KHALI, KUMARHATTI-BAROG-SOLAN ROAD KUMARHATTI, SOLAN(H.P)173229",SOLAN,salessolan@himalayanhonda.com crmsolan@himalayanhonda.com servicesolan@himalayanhonda.com partssolan@himalayanhonda.com,"8894718001, 8894718004, 8894718003, 01792-266057, 8894228827",NA, SMS Address
